 name,kana,area,type,business_hours,holiday,budget,phone,address,website,gmap_url,description,opening_hours
Fairy,フェアリー,池袋駅（東口）,キャバクラ,20:00～1:00,日曜,"60分 5,500円〜 
                                    
                                                                                    (税込) (税込)",090-2080-7541,東京都豊島区東池袋1-4-2  三経33ビル 4F,https://www.caba2.net/s/11570,https://www.google.com/maps/search/?api=1&query=Fairy+%E6%B1%A0%E8%A2%8B%E9%A7%85%EF%BC%88%E6%9D%B1%E5%8F%A3%EF%BC%89+%E6%9D%B1%E4%BA%AC%E9%83%BD%E8%B1%8A%E5%B3%B6%E5%8C%BA%E6%9D%B1%E6%B1%A0%E8%A2%8B1-4-2,"2025年4月GRAND OPEN☆大手グループによる新ブランド店【Fairy（フェアリー）】★
内装費総額1億円超え！池袋東口プリンスグループ3号店☆新たにオープンするプリンスグループが誇る新ブランド☆大手ならではの確かなクオリティとリーズナブルなお値段からお楽しみ頂ける価格設定で、オープン前から話題騒然！4月のオープン時にはぜひ一度お試し下さい♪",
cafe&bar Spiral D TOKYO,スパイラルディートウキョウ,歌舞伎町,ガールズバー,21:00～LAST,水曜,"60分 4,000円〜 
                                    
                                                                                    (税・サ別) (税・サ別)",080-4291-0326,東京都新宿区歌舞伎町1-7-1  J2ビル地上3階全室,https://www.caba2.net/s/11597,https://www.google.com/maps/search/?api=1&query=cafe%26bar+Spiral+D+TOKYO+%E6%AD%8C%E8%88%9E%E4%BC%8E%E7%94%BA+%E6%9D%B1%E4%BA%AC%E9%83%BD%E6%96%B0%E5%AE%BF%E5%8C%BA%E6%AD%8C%E8%88%9E%E4%BC%8E%E7%94%BA1-7-1,"特殊ライトやスモーク！？新感覚ガールズバー【cafe＆bar Spiral D TOKYO - スパイラルディートウキョウ - 】
めーっちゃ可愛いだけでもヤバイのに、どの子も気さくで明るい性格だから楽しくおしゃべりができちゃう！
店舗の衣装が3か月ごとに更新されていくからいつ訪れても新鮮な気持ちでお話に楽しむ事ができます！","木曜日: 19時00分～5時00分
金曜日: 19時00分～5時00分
土曜日: 19時00分～5時00分
日曜日: 18時00分～4時00分 時間変更の可能性
月曜日: 19時00分～5時00分 時間変更の可能性
火曜日: 19時00分～5時00分
水曜日: 19時00分～5時00分"
LoiS,ロイズ,大森,キャバクラ,20:00～LAST,日曜,"60分 4,000円
                                    
                                                                                    (税・サ別) (税・サ別)",03-5753-3110,東京都大田区大森北1-4-1  桂昇大森駅前ビル 8F,https://www.caba2.net/s/948,https://www.google.com/maps/search/?api=1&query=LoiS+%E5%A4%A7%E6%A3%AE+%E6%9D%B1%E4%BA%AC%E9%83%BD%E5%A4%A7%E7%94%B0%E5%8C%BA%E5%A4%A7%E6%A3%AE%E5%8C%971-4-1,"大森駅東口 姉キャバLoiS (ロイズ)
大森で話題の姉キャバLoiS (ロイズ)は系列店も多数ある優良店！
大人の余裕溢れる女性と優雅な夜を存分にお楽しみください。",
NUMBER46,ナンバーフォーティーシックス,歌舞伎町,コンカフェ＆バー,18:00～1:00,年中無休,"30分 640円〜 
                                    
                                                                                    (税・サ別) (税・サ別)",03-6457-6185,東京都新宿区歌舞伎町2-45-17  GEST33ビル 2F,https://www.caba2.net/s/11599,https://www.google.com/maps/search/?api=1&query=NUMBER46+%E6%AD%8C%E8%88%9E%E4%BC%8E%E7%94%BA+%E6%9D%B1%E4%BA%AC%E9%83%BD%E6%96%B0%E5%AE%BF%E5%8C%BA%E6%AD%8C%E8%88%9E%E4%BC%8E%E7%94%BA2-45-17,"正統派アイドルコンカフェ【NUMBER46 - ナンバーフォーティーシックス - 】
業界初！？の正統派アイドル系コンカフェが歌舞伎町に登場！
こんなに清楚な子に会えるのはNUMBER46だけ！
予約制だから人の目を気にせず利用できるのも嬉しいポイント♪",
小結,オムスビ,高田馬場,ガールズバー,20:00～LAST,日曜,"60分 3,000円
                                    
                                                                                    (税・サ別) (税・サ別)",03-6205-6887,東京都新宿区高田馬場2‐19‐7  タックイレブン高田馬場 1F,https://www.caba2.net/s/11590,https://www.google.com/maps/search/?api=1&query=%E5%B0%8F%E7%B5%90+%E9%AB%98%E7%94%B0%E9%A6%AC%E5%A0%B4+%E6%9D%B1%E4%BA%AC%E9%83%BD%E6%96%B0%E5%AE%BF%E5%8C%BA%E9%AB%98%E7%94%B0%E9%A6%AC%E5%A0%B42%E2%80%9019%E2%80%907,"おむすびが食べられる和風ガールズバー【小結 - オムスビ - 】
高田馬場駅からスグ！徒歩1分以内の好立地にあるガールズバーが小結！おにぎり専門店の顔を持つお食事処だからおにぎりは本格的な美味しさ！かわいくて気さくな女の子達とお酒も楽しめる唯一無二のお店です♪","木曜日: 9時00分～19時00分
金曜日: 9時00分～19時00分
土曜日: 9時00分～19時00分
日曜日: 9時00分～19時00分 時間変更の可能性
月曜日: 9時00分～19時00分 時間変更の可能性
火曜日: 9時00分～19時00分
水曜日: 9時00分～19時00分"
東京夜遊,トウキョウヨアソビ,蒲田,ガールズスナック,19:00～LAST,年中無休,"60分 3,000円
                                    
                                                                                    (税・サ別) (税・サ別)",080-8528-0850,東京都大田区蒲田4-18-8  京急イドヤビル 3F,https://www.caba2.net/s/11589,https://www.google.com/maps/search/?api=1&query=%E6%9D%B1%E4%BA%AC%E5%A4%9C%E9%81%8A+%E8%92%B2%E7%94%B0+%E6%9D%B1%E4%BA%AC%E9%83%BD%E5%A4%A7%E7%94%B0%E5%8C%BA%E8%92%B2%E7%94%B04-18-8,"広々としたソファで楽しめるスナック【東京夜遊 - トウキョウヨアソビ - 】
京急蒲田駅からスグの場所にあるスナック東京夜遊！
２０代を中心に活躍する店内ではいつでもにぎやかに楽しめます♪
ソファが広く、おひとり様から団体様まで幅広いシーンでご利用頂けます！",
DEAREST,ディアレスト,歌舞伎町,キャバクラ,20:00～LAST,日曜,"60分 12,000円〜 
                                    
                                                                                    (税・サ別) (税・サ別)",03-6457-3505,東京都新宿区歌舞伎町1-3-15  ザ・カテリーナビル B1F,https://www.caba2.net/s/24,https://www.google.com/maps/search/?api=1&query=DEAREST+%E6%AD%8C%E8%88%9E%E4%BC%8E%E7%94%BA+%E6%9D%B1%E4%BA%AC%E9%83%BD%E6%96%B0%E5%AE%BF%E5%8C%BA%E6%AD%8C%E8%88%9E%E4%BC%8E%E7%94%BA1-3-15,"歌舞伎町屈指の超大型店舗【DEAREST（ディアレスト）】
歌舞伎町繁華街のアンダーグラウンドに広がる壮大かつ幻想的フロアが皆様の至福のひと時をご提供します♪","木曜日: 20時00分～1時00分
金曜日: 20時00分～1時00分
土曜日: 20時00分～0時00分
日曜日: 定休日 時間変更の可能性
月曜日: 20時00分～1時00分 時間変更の可能性
火曜日: 20時00分～1時00分
水曜日: 20時00分～1時00分"
CLUB NOW,クラブ ナウ,歌舞伎町,キャバクラ,20:00～LAST,日曜,"60分 6,000円〜 
                                    
                                                                                    (税・サ別) (税・サ別)",03-6457-6156,東京都新宿区歌舞伎町2-10-6  ピア新宿ビル B1F,https://www.caba2.net/s/29,https://www.google.com/maps/search/?api=1&query=CLUB+NOW+%E6%AD%8C%E8%88%9E%E4%BC%8E%E7%94%BA+%E6%9D%B1%E4%BA%AC%E9%83%BD%E6%96%B0%E5%AE%BF%E5%8C%BA%E6%AD%8C%E8%88%9E%E4%BC%8E%E7%94%BA2-10-6,"この上なく重厚な最高のラグジュアリークラブ『NOW-ナウ-』。
すべてに於いて贅を尽くしたハイクオリティな空間で優雅な時間と本物のステータスをご提供いたします。","木曜日: 20時00分～1時00分
金曜日: 20時00分～1時00分
土曜日: 20時00分～1時00分
日曜日: 20時00分～1時00分 時間変更の可能性
月曜日: 20時00分～1時00分 時間変更の可能性
火曜日: 20時00分～1時00分
水曜日: 20時00分～1時00分"
CLUB AOI,クラブアオイ,歌舞伎町,キャバクラ,20:00～LAST,日曜,"60分 6,000円〜 
                                    
                                                                                    (税・サ別) (税・サ別)",03-6233-7061,東京都新宿区歌舞伎町2-23-12  チェックメイトビル 1F,https://www.caba2.net/s/5805,https://www.google.com/maps/search/?api=1&query=CLUB+AOI+%E6%AD%8C%E8%88%9E%E4%BC%8E%E7%94%BA+%E6%9D%B1%E4%BA%AC%E9%83%BD%E6%96%B0%E5%AE%BF%E5%8C%BA%E6%AD%8C%E8%88%9E%E4%BC%8E%E7%94%BA2-23-12,"オーナーママとして、初の「一条 葵プロデュース」話題の店舗「CLUB AOI-クラブ アオイ」
【一条 葵さん】が全てをイチから作り上げた歌舞伎町で今最も注目度のあるお店！白を基調とした内装や、キャストなど全てを徹底的にこだわり抜いた当店へ是非一度ご来店下さい！","木曜日: 20時00分～1時00分
金曜日: 20時00分～1時00分
土曜日: 20時00分～1時00分
日曜日: 定休日 時間変更の可能性
月曜日: 20時00分～1時00分 時間変更の可能性
火曜日: 20時00分～1時00分
水曜日: 20時00分～1時00分"
Club Lounge GRANJOUR,グランジュール,恵比寿,キャバクラ,19:00～1:00,日曜,"60分 8,000円〜 
                                    
                                                                                    (税・サ別) (税・サ別)",03-6303-1650,東京都渋谷区恵比寿南1-8-3  東亜恵比寿ビル 3F,https://www.caba2.net/s/11391,https://maps.app.goo.gl/gFSp3X6HZCXz5c7m8,"恵比寿最大級ハイクオリティキャバクラ『Club Lounge GRANJOUR（グランジュール）』★
有名ブランド店の系列店でもある大手経営の高級キャバクラ☆エリア柄にも相まった極上のクオリティをお客様にご提供させて頂きます。お一人様から接待使用、団体様までどなた様にもご満足頂けるサービスにてお迎えさせて頂きます。","木曜日: 19時00分～1時00分
金曜日: 19時00分～1時00分
土曜日: 19時00分～1時00分
日曜日: 定休日 祝休日の営業時間
月曜日: 19時00分～1時00分 祝休日の営業時間
火曜日: 19時00分～1時00分
水曜日: 19時00分～1時00分"
CLUB BACHERON,バシュロン,歌舞伎町,キャバクラ,20:00～LAST,日曜,"60分 8,000円〜 
                                    
                                                                                    (税・サ別) (税・サ別)",03-6278-9661,東京都新宿区歌舞伎町2-9-1  ソフィア3 B1F,https://www.caba2.net/s/11412,https://www.google.com/maps/search/?api=1&query=CLUB+BACHERON+%E6%AD%8C%E8%88%9E%E4%BC%8E%E7%94%BA+%E6%9D%B1%E4%BA%AC%E9%83%BD%E6%96%B0%E5%AE%BF%E5%8C%BA%E6%AD%8C%E8%88%9E%E4%BC%8E%E7%94%BA2-9-1,"9月初旬あの人気店がRENEWAL OPEN☆『CLUB BACHERON（バシュロン）』★
ハイレベルなクオリティを据え置きに、歌舞伎町のお店の中でも随一のサービスをお客様にご提供させて頂きます☆高級感あるこだわりの内装と、それに見合うレベルに相応しいキャスト陣と共に至高のお時間をお過ごしください。","木曜日: 20時00分～1時00分
金曜日: 20時00分～1時00分
土曜日: 20時00分～1時00分
日曜日: 定休日 時間変更の可能性
月曜日: 20時00分～1時00分 時間変更の可能性
火曜日: 20時00分～1時00分
水曜日: 20時00分～1時00分"
otto,オット,歌舞伎町,キャバクラ,20:00～LAST,日曜,"60分 8,000円〜 
                                    
                                                                                    (税・サ別) (税・サ別)",03-3202-8770,東京都新宿区歌舞伎町1-4-12  新宿ミヤタビル 1F,https://www.caba2.net/s/5873,https://www.google.com/maps/search/?api=1&query=otto+%E6%AD%8C%E8%88%9E%E4%BC%8E%E7%94%BA+%E6%9D%B1%E4%BA%AC%E9%83%BD%E6%96%B0%E5%AE%BF%E5%8C%BA%E6%AD%8C%E8%88%9E%E4%BC%8E%E7%94%BA1-4-12,"歌舞伎町の人気店【otto（オット）】区役所通りの路面店
大手グループからの待望の新規店舗で内装、キャストなども一切の妥協なくこだわり抜いております。歌舞伎町にお越しの際は是非当店へ足を運んでみてください。","木曜日: 20時00分～1時00分
金曜日: 20時00分～1時00分
土曜日: 20時00分～1時00分
日曜日: 定休日 時間変更の可能性
月曜日: 20時00分～1時00分 時間変更の可能性
火曜日: 20時00分～1時00分
水曜日: 20時00分～1時00分"
Club Deesse,ディース,池袋駅（西口）,キャバクラ,20:00～LAST,日曜,"60分 6,000円〜 
                                    
                                                                                    (税・サ別) (税・サ別)",03-6914-2556,東京都豊島区西池袋1-43-3  日精ビル 3F,https://www.caba2.net/s/10727,https://www.google.com/maps/search/?api=1&query=Club+Deesse+%E6%B1%A0%E8%A2%8B%E9%A7%85%EF%BC%88%E8%A5%BF%E5%8F%A3%EF%BC%89+%E6%9D%B1%E4%BA%AC%E9%83%BD%E8%B1%8A%E5%B3%B6%E5%8C%BA%E8%A5%BF%E6%B1%A0%E8%A2%8B1-43-3,"池袋最大の大型店『Club Deesse-ディース-』★
広大なフロアとハイクラスなキャスト陣営にてお客様に至高のお時間をご提供させていただきます。高級感溢れる豪華な内装でのひと時をリーズナブルなお値段にてお楽しみ頂けます。","木曜日: 20時00分～1時00分
金曜日: 20時00分～1時00分
土曜日: 20時00分～1時00分
日曜日: 20時00分～1時00分 時間変更の可能性
月曜日: 定休日 時間変更の可能性
火曜日: 20時00分～1時00分
水曜日: 20時00分～1時00分"
MINT,ミント,上野,キャバクラ,19:00～LAST,日曜・祝祭日,"60分 8,000円〜 
                                    
                                                                                    (税・サ別) (税・サ別)",03-3834-0525,東京都文京区湯島3-38-12  エスパス上野広小路 8F,https://www.caba2.net/s/211,https://www.google.com/maps/search/?api=1&query=MINT+%E4%B8%8A%E9%87%8E+%E6%9D%B1%E4%BA%AC%E9%83%BD%E6%96%87%E4%BA%AC%E5%8C%BA%E6%B9%AF%E5%B3%B63-38-12,"上野エリア屈指の大型店舗…MINT(ミント)!!
有名デザイナーが手掛けた最上級のラグジュアリー空間＆極上美女軍団がお客様をおもてなし致します。店内サービスに一切の妥協は無く、お客様に至福のお時間をお約束します。","木曜日: 20時00分～1時00分
金曜日: 20時00分～1時00分
土曜日: 20時00分～1時00分
日曜日: 定休日 時間変更の可能性
月曜日: 20時00分～1時00分 時間変更の可能性
火曜日: 20時00分～1時00分
水曜日: 20時00分～1時00分"
Club SAISON,セゾン,六本木,キャバクラ,20:00～1:00,日曜・祝祭日,"60分 12,000円〜 
                                    
                                                                                    (税・サ別) (税・サ別)",03-6434-0344,東京都港区六本木7-13-2  アーバンビル 4F,https://www.caba2.net/s/6857,https://www.google.com/maps/search/?api=1&query=Club+SAISON+%E5%85%AD%E6%9C%AC%E6%9C%A8+%E6%9D%B1%E4%BA%AC%E9%83%BD%E6%B8%AF%E5%8C%BA%E5%85%AD%E6%9C%AC%E6%9C%A87-13-2,"高級感溢れる上質なナイトクラブ『Club SAISON-セゾン-』☆
高級店立ち並ぶ六本木エリアの中でも一際豪華かつ、和洋バリエーションに富んだ内装はまさにこだわりの作品。比較的リーズナブルなお値段にてお楽しみ頂けるのも大手経営ならではの魅力☆お客様のご来店心よりお待ち申し上げております。","木曜日: 20時00分～1時00分
金曜日: 20時00分～1時00分
土曜日: 20時00分～1時00分
日曜日: 定休日 時間変更の可能性
月曜日: 20時00分～1時00分 時間変更の可能性
火曜日: 20時00分～1時00分
水曜日: 20時00分～1時00分"
MUSERVA,ミュゼルヴァ,六本木,キャバクラ,20:00～1:00,日曜・祝祭日,"60分 12,100円〜 
                                    
                                                                                    (税込) (税込)",03-5771-0261,東京都港区六本木3-8-18  六本木三経41ビル B2F,https://www.caba2.net/s/1530,https://www.google.com/maps/search/?api=1&query=MUSERVA+%E5%85%AD%E6%9C%AC%E6%9C%A8+%E6%9D%B1%E4%BA%AC%E9%83%BD%E6%B8%AF%E5%8C%BA%E5%85%AD%E6%9C%AC%E6%9C%A83-8-18,"煌びやかな六本木の夜を演出する【ミュゼルヴァ 六本木】
洗練され落ち着きのある内装に厳選されたキャスト陣が貴方をお待ちしております。最高を知る、大人だけの空間にて至福のひと時を…","木曜日: 20時00分～1時00分
金曜日: 20時00分～1時00分
土曜日: 20時00分～1時00分
日曜日: 定休日 時間変更の可能性
月曜日: 20時00分～1時00分 時間変更の可能性
火曜日: 20時00分～1時00分
水曜日: 20時00分～1時00分"
SEASIDE SHIBUYA,シーサイドシブヤ,渋谷,キャバクラ,20:00～LAST,日曜,"60分 8,800円〜 
                                    
                                                                                    (税込) (税込)",03-3476-8755,東京都渋谷区宇田川町33-8  塚田ビル 8F/6F,https://www.caba2.net/s/302,https://www.google.com/maps/search/?api=1&query=SEASIDE+SHIBUYA+%E6%B8%8B%E8%B0%B7+%E6%9D%B1%E4%BA%AC%E9%83%BD%E6%B8%8B%E8%B0%B7%E5%8C%BA%E5%AE%87%E7%94%B0%E5%B7%9D%E7%94%BA33-8,"各地に展開する有名ブラント店『渋谷SEA SIDE(シーサイド)』☆
渋谷最大級の広大な店内、そして渋谷最高のキャストが勢揃い☆『嬢王3』・月9『恋愛できない理由』の舞台にもなった有名店です♪","木曜日: 19時00分～1時00分
金曜日: 19時00分～1時00分
土曜日: 19時00分～1時00分
日曜日: 定休日 時間変更の可能性
月曜日: 19時00分～1時00分 時間変更の可能性
火曜日: 19時00分～1時00分
水曜日: 19時00分～1時00分"
美人茶屋,ビジンチャヤ,歌舞伎町,キャバクラ,19:00～LAST,日曜,"60分 6,600円〜 
                                    
                                                                                    (税込) (税込)",03-5155-3455,東京都新宿区歌舞伎町2-23-1  風林会館 4F,https://www.caba2.net/s/15,https://www.google.com/maps/search/?api=1&query=%E7%BE%8E%E4%BA%BA%E8%8C%B6%E5%B1%8B+%E6%AD%8C%E8%88%9E%E4%BC%8E%E7%94%BA+%E6%9D%B1%E4%BA%AC%E9%83%BD%E6%96%B0%E5%AE%BF%E5%8C%BA%E6%AD%8C%E8%88%9E%E4%BC%8E%E7%94%BA2-23-1,"全国で知名度を誇る人気ブランド【美人茶屋】☆六本木・ミナミ・祇園エリアで人気のブランド【美人茶屋】が歌舞伎町の歴史を塗り替える!!
和のテイストをふんだんに盛り込んだ店内にお洒落な個室をご用意しております。在籍数100名を超える美女たちと最高の一時をお約束致しますので、是非一度ご来店下さいませ。","木曜日: 19時00分～1時00分
金曜日: 19時00分～1時00分
土曜日: 19時00分～1時00分
日曜日: 定休日 時間変更の可能性
月曜日: 19時00分～1時00分 時間変更の可能性
火曜日: 19時00分～1時00分
水曜日: 19時00分～1時00分"
VEROUGE,ヴェルージュ,歌舞伎町,キャバクラ,20:00～LAST,日曜,"60分 12,000円〜 
                                    
                                                                                    (税・サ別) (税・サ別)",03-6302-1231,東京都新宿区歌舞伎町2-10-8  ゆきざきビル B1F,https://www.caba2.net/s/35,https://www.google.com/maps/search/?api=1&query=VEROUGE+%E6%AD%8C%E8%88%9E%E4%BC%8E%E7%94%BA+%E6%9D%B1%E4%BA%AC%E9%83%BD%E6%96%B0%E5%AE%BF%E5%8C%BA%E6%AD%8C%E8%88%9E%E4%BC%8E%E7%94%BA2-10-8,"歌舞伎町で最大級規模の大型店舗…【VEROUGE(ヴェルージュ)】
【VEROUGE(ヴェルージュ)】は総面積120坪を誇る高級感溢れる店内。貴方だけの大切なお時間を今宵VEROUGEにて…。","木曜日: 20時00分～1時00分
金曜日: 20時00分～1時00分
土曜日: 20時00分～0時00分
日曜日: 定休日 時間変更の可能性
月曜日: 20時00分～1時00分 時間変更の可能性
火曜日: 20時00分～1時00分
水曜日: 20時00分～1時00分"
RIO SHIMBASHI,リオ,新橋,キャバクラ,19:00～LAST,日曜,"60分 6,600円〜 
                                    
                                                                                    (税込) (税込)",03-3528-8114,東京都港区新橋2-9-4  乾盃ビル3F,https://www.caba2.net/s/8140,https://www.google.com/maps/search/?api=1&query=RIO+SHIMBASHI+%E6%96%B0%E6%A9%8B+%E6%9D%B1%E4%BA%AC%E9%83%BD%E6%B8%AF%E5%8C%BA%E6%96%B0%E6%A9%8B2-9-4,"福岡の博多・中州エリアで絶大な人気を誇るグループ店が新橋に登場【RIO SHIMBASHI-リオ】
福岡の博多・中州エリアで多数店舗を展開するリオグループが新橋に登場。
来店頂く全てのお客様に非日常感を味わって頂くため、内装には徹底的にこだわりぬいた仕上がり。
総工費は３億円以上をかけ、他の追随を許さないクオリティとなっております。","木曜日: 20時00分～1時00分
金曜日: 20時00分～1時00分
土曜日: 20時00分～1時00分
日曜日: 定休日 時間変更の可能性
月曜日: 20時00分～1時00分 時間変更の可能性
火曜日: 20時00分～1時00分
水曜日: 20時00分～1時00分"
SEASIDE IKEBUKURO,シーサイドイケブクロ,池袋駅（東口）,キャバクラ,19:00～1:00,年中無休,"60分 5,500円〜 
                                    
                                                                                    (税込) (税込)",03-6915-2286,東京都豊島区東池袋1-4-2  三経33ビル 5F,https://www.caba2.net/s/187,https://www.google.com/maps/search/?api=1&query=SEASIDE+IKEBUKURO+%E6%B1%A0%E8%A2%8B%E9%A7%85%EF%BC%88%E6%9D%B1%E5%8F%A3%EF%BC%89+%E6%9D%B1%E4%BA%AC%E9%83%BD%E8%B1%8A%E5%B3%B6%E5%8C%BA%E6%9D%B1%E6%B1%A0%E8%A2%8B1-4-2,"大手プリンスグループが誇る高級キャバクラが池袋に進出。
店内はもちろん、女の子のクオリティーにもこだわっており、池袋トップクラスの高級店をお値段リーズナブルにお楽しみ頂けます。
“深海の楽園”をコンセプトにした贅沢な空間SEASIDE。店内の隅々までこだわった、シャンデリアやテーブルや椅子は贅沢すぎる空間を演出しています。
都内最大級の90坪という広さは圧巻です！","木曜日: 19時00分～1時00分
金曜日: 19時00分～1時00分
土曜日: 19時00分～1時00分
日曜日: 19時00分～1時00分 時間変更の可能性
月曜日: 19時00分～1時00分 時間変更の可能性
火曜日: 19時00分～1時00分
水曜日: 19時00分～1時00分"
club bisser,ビゼ,六本木,ニュークラブ,20:00～1:00,日曜・祝祭日,"60分 12,100円〜 
                                    
                                                                                    (税込) (税込)",03-5772-8340,東京都港区六本木3-8-15  瀬里奈ビレッジ B2F,https://www.caba2.net/s/3214,https://maps.app.goo.gl/W7JPAutgMx6bQ3vb9,"六本木の有名ニュークラブ「ビゼ 六本木」
有名デザイナーが手掛けた内装費数億円の最高級の空間に、選び抜かれたハイレベルなキャスト陣がお客様を上質な時間へと誘います。
六本木の上品で洗練されたお客様をも満足させる大理石やバカラ・スワロフスキーがちりばめられたラグジュアリーな空間を是非ともご堪能ください！","木曜日: 20時00分～1時00分
金曜日: 20時00分～1時00分
土曜日: 20時00分～1時00分
日曜日: 定休日 時間変更の可能性
月曜日: 20時00分～1時00分 時間変更の可能性
火曜日: 20時00分～1時00分
水曜日: 20時00分～1時00分"
CLUB LA VOGUE,ラヴォーグ,品川,キャバクラ,19:00～LAST,日曜,"60分 4,000円〜 
                                    
                                                                                    (税・サ別) (税・サ別)",03-6433-9677,東京都港区港南2-2-9  1F・2F,https://www.caba2.net/s/11404,https://www.google.com/maps/search/?api=1&query=CLUB+LA+VOGUE+%E5%93%81%E5%B7%9D+%E6%9D%B1%E4%BA%AC%E9%83%BD%E6%B8%AF%E5%8C%BA%E6%B8%AF%E5%8D%972-2-9,"紳士の夜を彩るラグジュアリー空間の【CLUB  LA  VOGUE - ラヴォーグ - 】
港区という立地に相応しい高級感を感じる内装。
隅々まで行き届いたきめ細かなおもてなし。
美女と酒を交わせば夜はあっという間に夜は更けるでしょう。
最高の体験が此処に存在します。","木曜日: 19時00分～0時00分
金曜日: 19時00分～0時00分
土曜日: 19時00分～0時00分
日曜日: 定休日 時間変更の可能性
月曜日: 19時00分～0時00分 時間変更の可能性
火曜日: 19時00分～0時00分
水曜日: 19時00分～0時00分"
High School Marya 上野店,ハイスクールマーヤ,上野,キャバクラ,19:00～LAST,年中無休,"40分 5,880円〜 
                                    
                                                                                    (税・サ込) (税・サ込)",03-5812-8060,東京都台東区上野2-12-3  大国屋ビル 3F,https://www.caba2.net/s/1020,https://www.google.com/maps/search/?api=1&query=High+School+Marya+%E4%B8%8A%E9%87%8E%E5%BA%97+%E4%B8%8A%E9%87%8E+%E6%9D%B1%E4%BA%AC%E9%83%BD%E5%8F%B0%E6%9D%B1%E5%8C%BA%E4%B8%8A%E9%87%8E2-12-3,"上野キャバクラHigh School Marya・ハイスクールマーヤ上野店 (ハイスクールマーヤ)
3ヶ月で卒業してしまう素人専門の人気店！エレガントな店内にJK制服を着たエリアTOPレベルの女の子が、お客様に忘れられない時間をご提供致します。","木曜日: 19時00分～1時00分
金曜日: 19時00分～1時00分
土曜日: 19時00分～1時00分
日曜日: 定休日 時間変更の可能性
月曜日: 19時00分～1時00分 時間変更の可能性
火曜日: 19時00分～1時00分
水曜日: 19時00分～1時00分"
bisser,ビゼ,池袋駅（東口）,キャバクラ,19:00～LAST,日曜,"60分 6,600円〜 
                                    
                                                                                    (税込) (税込)",03-5956-2557,東京都豊島区東池袋1-4-2  三経33ビル 2F,https://www.caba2.net/s/205,https://www.google.com/maps/search/?api=1&query=bisser+%E6%B1%A0%E8%A2%8B%E9%A7%85%EF%BC%88%E6%9D%B1%E5%8F%A3%EF%BC%89+%E6%9D%B1%E4%BA%AC%E9%83%BD%E8%B1%8A%E5%B3%B6%E5%8C%BA%E6%9D%B1%E6%B1%A0%E8%A2%8B1-4-2,"池袋東口を代表する有名店☆『club bisser』☆
☆ビゼの名にふさわしい本物が池袋に…☆超大型グループの一角♪白と黒でまとめられた店内に鮮やかなグリーンで彩った落ち着いた雰囲気となっております!!","木曜日: 19時00分～1時00分
金曜日: 19時00分～1時00分
土曜日: 19時00分～1時00分
日曜日: 定休日 時間変更の可能性
月曜日: 19時00分～1時00分 時間変更の可能性
火曜日: 19時00分～1時00分
水曜日: 19時00分～1時00分"
KINGDOM QUEEN,キングダムクイーン,歌舞伎町,キャバクラ,20:00～LAST,日曜,"60分 6,000円〜 
                                    
                                                                                    (税・サ別) (税・サ別)",03-3209-5643,東京都新宿区歌舞伎町2-26-3  互福ビル 2F,https://www.caba2.net/s/38,https://www.google.com/maps/search/?api=1&query=KINGDOM+QUEEN+%E6%AD%8C%E8%88%9E%E4%BC%8E%E7%94%BA+%E6%9D%B1%E4%BA%AC%E9%83%BD%E6%96%B0%E5%AE%BF%E5%8C%BA%E6%AD%8C%E8%88%9E%E4%BC%8E%E7%94%BA2-26-3,"歌舞伎町でもそのゴージャスさは他を圧倒するほどの存在感を持つ『KINGDOM QUEEN-キングダムクイーン』
クラシック、ユーロスタイル、ラグジュアリーの３空間で様々な演出が楽しめる空間で華麗なクイーンが貴方をお待ちしています","木曜日: 20時00分～1時00分
金曜日: 20時00分～1時00分
土曜日: 20時00分～1時00分
日曜日: 定休日 時間変更の可能性
月曜日: 20時00分～1時00分 時間変更の可能性
火曜日: 20時00分～1時00分
水曜日: 20時00分～1時00分"
池袋 Red Shoes,レッドシューズ,池袋駅（東口）,キャバクラ,20:00～LAST,日曜,"60分 5,500円〜 
                                    
                                                                                    (税込) (税込)",03-6915-2192,東京都豊島区東池袋1-4-2  三経33ビル 3F,https://www.caba2.net/s/5981,https://www.google.com/maps/search/?api=1&query=%E6%B1%A0%E8%A2%8B+Red+Shoes+%E6%B1%A0%E8%A2%8B%E9%A7%85%EF%BC%88%E6%9D%B1%E5%8F%A3%EF%BC%89+%E6%9D%B1%E4%BA%AC%E9%83%BD%E8%B1%8A%E5%B3%B6%E5%8C%BA%E6%9D%B1%E6%B1%A0%E8%A2%8B1-4-2,"大手プリンスグループが誇る高級キャバクラ「レッドシューズ」
「レッドシューズ」横浜・新横浜・札幌・沖縄にお店を構える、グループの有名ブランドの一つです。
黒を基調とした豪華な店内と都会の夜を彩る煌びやかなキャスト陣、非日常を味わえる最高級なお店です。","木曜日: 20時00分～1時00分
金曜日: 20時00分～1時00分
土曜日: 20時00分～1時00分
日曜日: 定休日 時間変更の可能性
月曜日: 20時00分～1時00分 時間変更の可能性
火曜日: 20時00分～1時00分
水曜日: 20時00分～1時00分"
華灯,ハナビ,歌舞伎町,キャバクラ,20:00～LAST,日曜,"60分 12,000円〜 
                                    
                                                                                    (税・サ別) (税・サ別)",03-5291-5350,東京都新宿区歌舞伎町2-10-7  ダイヤモンドビル 1F,https://www.caba2.net/s/6105,https://www.google.com/maps/search/?api=1&query=%E8%8F%AF%E7%81%AF+%E6%AD%8C%E8%88%9E%E4%BC%8E%E7%94%BA+%E6%9D%B1%E4%BA%AC%E9%83%BD%E6%96%B0%E5%AE%BF%E5%8C%BA%E6%AD%8C%E8%88%9E%E4%BC%8E%E7%94%BA2-10-7,"和を基調とした豪華な店内環境と洗練された美女軍団が最高のサービスをご提供します。
業界でも激戦区の歌舞伎町エリアでキャストの質もスタッフサービスもワンランク上の
ハイクオリティな空間を提供いたします。
歌舞伎町で話題をさらうこと間違いなしの同店へ是非…お越し下さいませ。","木曜日: 20時00分～1時00分
金曜日: 20時00分～1時00分
土曜日: 20時00分～1時00分
日曜日: 定休日 時間変更の可能性
月曜日: 20時00分～1時00分 時間変更の可能性
火曜日: 20時00分～1時00分
水曜日: 20時00分～1時00分"
SoloMON,ソロモン,歌舞伎町,キャバクラ,21:00～LAST,日曜,"60分 9,000円〜 
                                    
                                                                                    (税・サ別) (税・サ別)",03-3232-6560,東京都新宿区歌舞伎町1-3-11  梅村ビル2F,https://www.caba2.net/s/11267,https://www.google.com/maps/search/?api=1&query=SoloMON+%E6%AD%8C%E8%88%9E%E4%BC%8E%E7%94%BA+%E6%9D%B1%E4%BA%AC%E9%83%BD%E6%96%B0%E5%AE%BF%E5%8C%BA%E6%AD%8C%E8%88%9E%E4%BC%8E%E7%94%BA1-3-11,"スタイリッシュなラウンジスタイルのキャバクラ【SoloMON - ソロモン - 】
上質でモダンなインテリアを使った空間で特別なひと時を楽しめます。
いつもと違ったシーンにも対応するスイートを完備。
スイートにはB&B italiaの家具を使用したレイアウトで高級感たっぷり。
ラウンジのように優雅な時間を堪能して頂けます。",
revju,レヴュー,歌舞伎町,キャバクラ,20:00～LAST,日曜,"60分 12,000円〜 
                                    
                                                                                    (税・サ別) (税・サ別)",03-5155-9577,東京都新宿区歌舞伎町2-10-7  ダイヤモンドビル B2F,https://www.caba2.net/s/3412,https://www.google.com/maps/search/?api=1&query=revju+%E6%AD%8C%E8%88%9E%E4%BC%8E%E7%94%BA+%E6%9D%B1%E4%BA%AC%E9%83%BD%E6%96%B0%E5%AE%BF%E5%8C%BA%E6%AD%8C%E8%88%9E%E4%BC%8E%E7%94%BA2-10-7,"日本一の歓楽街歌舞伎町で安定的な人気を誇るお店といえばレヴュー！
ゴールド・赤・黒を基調にしたゴージャスな内装に、目の肥えた歌舞伎町のお客様を満足させる選び抜かれたキャスト達が非日常的な極上の空間へとお連れ致します。
最高級のキャストとベテランスタッフ一同がお客様のご来店を心よりお待ちしております。",
PUREMIE -Ginza-,プレミエ,銀座,エンターテインメント&ショークラブ,20:00～2:00,日曜,"90分 3,000円
                                    
                                                                                    (税・サ別) (税・サ別)",03-6264-6709,東京都中央区銀座8-2-1  ニッタビル 8F,https://www.caba2.net/s/11208,https://www.google.com/maps/search/?api=1&query=PUREMIE+-Ginza-+%E9%8A%80%E5%BA%A7+%E6%9D%B1%E4%BA%AC%E9%83%BD%E4%B8%AD%E5%A4%AE%E5%8C%BA%E9%8A%80%E5%BA%A78-2-1,"銀座最大級のエンタメショークラブ『PREMIE-Ginza-（プレミエ）』☆
銀座最大級のエンターテインメント＆ショークラブです。
スタイリッシュでありながら居心地の良い空間で、ダンスや音響、お酒を楽しめる時間を過ごしていただきます。今までとは全く違う新しい価値をもたらす高級ショークラブとして誕生しました。ショーダンス、ポールダンス、レギュラーショーが1日４回、その他、定期的に人気なDJやラッパーをGUESTとしてサプライズショーを開催することもあります。PUREMIEはサウンドにこだわり、最高峰レベルのスピーカーを採用しました。セクシーなショーはもちろん、体の芯まで響く音をお届けします。PUREMIEでしか体感できない、最上のショー世界をご堪能ください。","木曜日: 21時00分～4時00分
金曜日: 21時00分～4時00分
土曜日: 21時00分～4時00分
日曜日: 定休日 時間変更の可能性
月曜日: 21時00分～4時00分 時間変更の可能性
火曜日: 21時00分～4時00分
水曜日: 21時00分～4時00分"
GLARE,グレア,湯島,キャバクラ,20:00～1:00,月曜・日曜,"60分 7,000円〜 
                                    
                                                                                    (税・サ別) (税・サ別)",03-6284-3051,東京都台東区上野2丁目10-4  池之端会館ビルB1F-F号,https://www.caba2.net/s/11315,https://www.google.com/maps/search/?api=1&query=GLARE+%E6%B9%AF%E5%B3%B6+%E6%9D%B1%E4%BA%AC%E9%83%BD%E5%8F%B0%E6%9D%B1%E5%8C%BA%E4%B8%8A%E9%87%8E2%E4%B8%81%E7%9B%AE10-4,"落ち着いた雰囲気が魅力の高級姉キャバ【GLARE - グレア - 】
選りすぐりの美女達がおもてなしをする高級姉キャバ。
店内の内装はシックかつ高級感たっぷり。
特別な夜を洗練されたキャスト達と楽しめます。","木曜日: 20時00分～1時00分
金曜日: 20時00分～1時00分
土曜日: 20時00分～1時00分
日曜日: 20時00分～1時00分 時間変更の可能性
月曜日: 20時00分～1時00分 時間変更の可能性
火曜日: 20時00分～1時00分
水曜日: 20時00分～1時00分"
WMWM,ウェーブ,歌舞伎町,キャバクラ,20:30～LAST,日曜,"60分 7,000円〜 
                                    
                                                                                    (税・サ別) (税・サ別)",03-3203-1122,東京都新宿区歌舞伎町2-26-3  互福ビルB1F,https://www.caba2.net/s/5801,https://www.google.com/maps/search/?api=1&query=WMWM+%E6%AD%8C%E8%88%9E%E4%BC%8E%E7%94%BA+%E6%9D%B1%E4%BA%AC%E9%83%BD%E6%96%B0%E5%AE%BF%E5%8C%BA%E6%AD%8C%E8%88%9E%E4%BC%8E%E7%94%BA2-26-3,"歌舞伎町で隠れ家的店舗で人気のWMWM『ウェーブ』
☆現代的なデザインでシックかつスタイリッシュで洗練されたデザインの内装と煌びやかなキャストがあなたを異次元空間へと誘います。","木曜日: 0時00分～6時00分20時30分～0時00分
金曜日: 0時00分～6時00分20時30分～0時00分
土曜日: 0時00分～6時00分20時30分～0時00分
日曜日: 0時00分～6時00分20時30分～0時00分 時間変更の可能性
月曜日: 0時00分～6時00分20時30分～0時00分 時間変更の可能性
火曜日: 0時00分～6時00分20時30分～0時00分
水曜日: 0時00分～6時00分20時30分～0時00分"
ZOO TOKYO,ズートウキョウ,六本木,zoo,19:00～LAST,日曜,"60分 6,600円〜 
                                    
                                                                                    (税込) (税込)",03-5770-3211,"東京都港区六本木3-14-11  ケントスビル 2F,3F,4F",https://www.caba2.net/s/73,https://www.google.com/maps/search/?api=1&query=ZOO+TOKYO+%E5%85%AD%E6%9C%AC%E6%9C%A8+%E6%9D%B1%E4%BA%AC%E9%83%BD%E6%B8%AF%E5%8C%BA%E5%85%AD%E6%9C%AC%E6%9C%A83-14-11,"日本最大級のフロア面積を誇る六本木「Zoo TOKYO」
いまだかつてないお洒落で豪華な店内、お客様の数、在籍キャスト数も日本トップクラス！圧倒的なスケールを持つお店です!!
本物を体感したいお客様は是非一度お越しくださいませ、最上級のひと時をご提供させて頂きます。","木曜日: 19時00分～1時00分
金曜日: 19時00分～1時00分
土曜日: 19時00分～1時00分
日曜日: 定休日 時間変更の可能性
月曜日: 19時00分～1時00分 時間変更の可能性
火曜日: 19時00分～1時00分
水曜日: 19時00分～1時00分"
ETERNA,エテルナ,歌舞伎町,キャバクラ,20:00～LAST,日曜,"60分 10,000円〜 
                                    
                                                                                    (税・サ別) (税・サ別)",03-3205-7880,東京都新宿区歌舞伎町1-4-12  新宿ミヤタビル 2F,https://www.caba2.net/s/5874,"https://www.google.com/maps/place/%E6%96%B0%E5%AE%BF%E3%83%9F%E3%83%A4%E3%82%BF%E3%83%93%E3%83%AB(%E3%83%8A%E3%82%AB%E3%83%A8%E3%82%B7%E3%83%93%E3%83%AB)/@35.6941593,139.7012177,17z/data=!3m2!4b1!5s0x60188cd99fa160ff:0xd8554742b042172b!4m6!3m5!1s0x60188d7b644d6e49:0x2aad6cd7c5da9adb!8m2!3d35.694155!4d139.7037926!16s%2Fg%2F11kb2d2ddn?entry=ttu&g_ep=EgoyMDI1MDIxMi4wIKXMDSoASAFQAw%3D%3D","ラグジュアリー感溢れる貴方だけの特別な空間を是非アナタへ...ETERNA（エテルナ）
大手グループ経営の高級感漂うラグジュアリーでハイクオリティな空間に多彩なキャストが在籍☆全ての欲求を満たすリラクゼーションスペースが、歌舞伎町の夜をアツくする！",
-CLUB- EVE（朝）,イヴ,池袋駅（西口）,朝・昼キャバクラ,6:00～15:00,年中無休,"60分 6,600円
                                    
                                                                                    (税込) (税込)",050-7586-4148,東京都豊島区池袋2-42-8  幸運館ビル 3F,https://www.caba2.net/s/6654,"https://www.google.com/maps/place/%E3%83%A9%E3%82%A6%E3%83%B3%E3%82%B8+EVE/@35.7336692,139.7049949,17z/data=!3m2!4b1!5s0x60188d5e43892191:0xf41105b7b2dbfd68!4m6!3m5!1s0x60188d92d2a29679:0x65272f2baed2b8a8!8m2!3d35.7336649!4d139.7098658!16s%2Fg%2F11l31_cnzp?entry=ttu&g_ep=EgoyMDI1MDIxMi4wIKXMDSoASAFQAw%3D%3D","池袋で人気の朝営業のキャバクラ 【-CLUB- EVE（イヴ）】★
高級感漂うラグジュアリークラブ【-CLUB- EVE（イヴ）】。ハイレベルなキャストのおもてなしで朝からの優雅なひとときをお過ごし下さい。",
RIO,リオ,歌舞伎町,キャバクラ,20:00～LAST,月曜,"60分 10,000円〜 
                                    
                                                                                    (税・サ別) (税・サ別)",03-6233-8162,東京都新宿区歌舞伎町１丁目３−５  相模観光ビルイーストプラザ B2F,https://www.caba2.net/s/6666,https://www.google.com/maps/search/?api=1&query=RIO+%E6%AD%8C%E8%88%9E%E4%BC%8E%E7%94%BA+%E6%9D%B1%E4%BA%AC%E9%83%BD%E6%96%B0%E5%AE%BF%E5%8C%BA%E6%AD%8C%E8%88%9E%E4%BC%8E%E7%94%BA%EF%BC%91%E4%B8%81%E7%9B%AE%EF%BC%93%E2%88%92%EF%BC%95,"歌舞伎町の隠れ家的キャバクラ洗練されたスタイリッシュな空間「RIO(リオ)」
新宿駅東口徒歩7分、歌舞伎町の喧騒をかき分けて進むと見えてくるのが「RIO(リオ)」です。
洗練されたスタイリッシュな空間は非常に居心地が良く、店内はゆっくりとした時間が流れます。
セクシーで華やかなドレスを着た様々なタイプのハイレベルなキャスト達がお客様に癒しのお時間をご提供させて頂きます。
歌舞伎町にお越しの際は是非ご来店下さいませ。","木曜日: 20時00分～1時00分
金曜日: 20時00分～1時00分
土曜日: 20時00分～1時00分
日曜日: 20時00分～1時00分 時間変更の可能性
月曜日: 定休日 時間変更の可能性
火曜日: 20時00分～1時00分
水曜日: 20時00分～1時00分"
VENET TOKYO SHINJUKU,ベネトウキョウ,歌舞伎町,キャバクラ,20:00～LAST,日曜・祝祭日,"60分 8,000円〜 
                                    
                                                                                    (税・サ別) (税・サ別)",03-5273-2424,東京都新宿区歌舞伎町2-10-8  歌舞伎町ゆきざきビル5F,https://www.caba2.net/s/11422,https://www.google.com/maps/search/?api=1&query=VENET+TOKYO+SHINJUKU+%E6%AD%8C%E8%88%9E%E4%BC%8E%E7%94%BA+%E6%9D%B1%E4%BA%AC%E9%83%BD%E6%96%B0%E5%AE%BF%E5%8C%BA%E6%AD%8C%E8%88%9E%E4%BC%8E%E7%94%BA2-10-8,"キャバクラひしめく新宿エリアで「質」を求めるなら【VENET TOKYO SHINJUKU - ベネトウキョウ - 】
歌舞伎町でも他の追随を許さない程の人気を獲得しているベネトウキョウ。
中世ヨーロッパ風の内装が特別な空間を演出します。
何回通ったとしても底が見えないラグジュアリーさと濃密な時間を提供致します。","木曜日: 20時00分～1時00分
金曜日: 20時00分～1時00分
土曜日: 20時00分～1時00分
日曜日: 定休日 祝休日の営業時間
月曜日: 定休日 祝休日の営業時間
火曜日: 20時00分～1時00分
水曜日: 20時00分～1時00分"
The Emperors Club,エンペラーズクラブ,北千住,キャバクラ,19:00～LAST,日曜,"60分 5,000円〜 
                                    
                                                                                    (税・サ別) (税・サ別)",03-5284-8918,東京都足立区千住3-36  桝屋ビル 3F,https://www.caba2.net/s/6226,https://www.google.com/maps/search/?api=1&query=The+Emperors+Club+%E5%8C%97%E5%8D%83%E4%BD%8F+%E6%9D%B1%E4%BA%AC%E9%83%BD%E8%B6%B3%E7%AB%8B%E5%8C%BA%E5%8D%83%E4%BD%8F3-36,"VIPルームも完備♪おしゃれな店内で素敵な夜を「エンペラーズクラブ」
北千住駅から徒歩3分にあるエンペラーズクラブは、豪華でおしゃれな内装とVIPルームを完備した素敵なお店です♪
選び抜かれたキャストはレベルが高く、とにかくかわいい女の子ばかり♡もちろん最高の接客で素敵な夜をエスコートしてくれます。時間を忘れて楽しいひとときを過ごせること間違いなしのエンペラーズクラブおすすめのお店です！",
CLUB Epic,エピック,上野,キャバクラ,20:00～LAST,日曜,"60分 8,000円〜 
                                    
                                                                                    (税・サ別) (税・サ別)",03-5816-1933,東京都台東区上野2-8-4  日栄ビル一番館 3F,https://www.caba2.net/s/3748,https://www.google.com/maps/search/?api=1&query=CLUB+Epic+%E4%B8%8A%E9%87%8E+%E6%9D%B1%E4%BA%AC%E9%83%BD%E5%8F%B0%E6%9D%B1%E5%8C%BA%E4%B8%8A%E9%87%8E2-8-4,"上野エリアの超人気店【Club Epic－エピック】※コロナ対策も万全です！
上質な高級感漂う店内に、上野エリアTOPクラスの質を誇るキャスト達が時間を忘れてしまう程の優雅なひと時をお客様にご提供させて頂きます。
上野にお立ち寄りの際は是非ご来店下さいませ。","木曜日: 20時00分～1時00分
金曜日: 20時00分～1時00分
土曜日: 20時00分～1時00分
日曜日: 定休日 時間変更の可能性
月曜日: 20時00分～1時00分 時間変更の可能性
火曜日: 20時00分～1時00分
水曜日: 20時00分～1時00分"
Chou Chou UENO,シュシュ,上野,キャバクラ,17:30～1:00,年中無休,"40分 4,680円〜 
                                    
                                                                                    (税・サ込) (税・サ込)",03-5818-0333,東京都台東区上野2-12-3  大国屋ビル 2F,https://www.caba2.net/s/1009,https://www.google.com/maps/search/?api=1&query=Chou+Chou+UENO+%E4%B8%8A%E9%87%8E+%E6%9D%B1%E4%BA%AC%E9%83%BD%E5%8F%B0%E6%9D%B1%E5%8C%BA%E4%B8%8A%E9%87%8E2-12-3,"上野の女子大生キャバクラ♡Chou Chou Ueno〜シュシュ上野店〜☆
現役の女子大生のみで構成された上野の人気キャバクラ☆セクシーなミニスカから伸びる美脚たちを堪能できるとあって人気なのなんて当たり前♪リーズナブルな価格からご利用できますので上野お立ち寄りの際にはぜひご来店くださいませ♡","木曜日: 17時30分～1時00分
金曜日: 17時30分～1時00分
土曜日: 17時30分～1時00分
日曜日: 17時30分～1時00分 時間変更の可能性
月曜日: 17時30分～1時00分 時間変更の可能性
火曜日: 17時30分～1時00分
水曜日: 17時30分～1時00分"
FOUR SEASONS,フォーシーズン,渋谷,キャバクラ,20:00～LAST,日曜,"60分 11,000円〜 
                                    
                                                                                    (税込) (税込)",03-6427-8157,東京都渋谷区宇多川町26-4  Lu82ビル 5F/6F,https://www.caba2.net/s/11316,https://www.google.com/maps/search/?api=1&query=FOUR+SEASONS+%E6%B8%8B%E8%B0%B7+%E6%9D%B1%E4%BA%AC%E9%83%BD%E6%B8%8B%E8%B0%B7%E5%8C%BA%E5%AE%87%E5%A4%9A%E5%B7%9D%E7%94%BA26-4,"渋谷最大級の大手経営店『FOUR SEASONS-フォーシーズン-』☆
渋谷エリアトップクラスの高級キャバクラ誕生！広大3フロアにわたるラグジュアリー空間☆渋谷のイメージを一新する他にはない高級空間。皆様のご来店心よりお待ちしております。","木曜日: 20時00分～1時00分
金曜日: 20時00分～1時00分
土曜日: 20時00分～1時00分
日曜日: 定休日 時間変更の可能性
月曜日: 20時00分～1時00分 時間変更の可能性
火曜日: 20時00分～1時00分
水曜日: 20時00分～1時00分"
キミとろぐいん。,キミトログイン,歌舞伎町,コンカフェ＆バー,12:00～LAST,年中無休,"40分 3,000円
                                    
                                                                                    (税・サ別) (税・サ別)",090-2144-9604,東京都新宿区歌舞伎町1-22-9  Jゴールドビル 2F,https://www.caba2.net/s/6879,https://www.google.com/maps/search/?api=1&query=%E3%82%AD%E3%83%9F%E3%81%A8%E3%82%8D%E3%81%90%E3%81%84%E3%82%93%E3%80%82+%E6%AD%8C%E8%88%9E%E4%BC%8E%E7%94%BA+%E6%9D%B1%E4%BA%AC%E9%83%BD%E6%96%B0%E5%AE%BF%E5%8C%BA%E6%AD%8C%E8%88%9E%E4%BC%8E%E7%94%BA1-22-9,"「2.5次元」×「バーチャルアイドル」が織りなすあなただけのセカイへ。『キミとろぐいん。』
2022年を締めくくる新世代の誕生。歌舞伎町に一筋の光を指すコンセプトカラーは白。ネットのセカイから飛び出したあなただけのアイドル育成コンカフェ☆SNSで見ていたあの子に会えるセカイ線を今ここに。","木曜日: 12時00分～5時00分
金曜日: 12時00分～5時00分
土曜日: 12時00分～5時00分
日曜日: 12時00分～5時00分 時間変更の可能性
月曜日: 12時00分～5時00分 時間変更の可能性
火曜日: 12時00分～5時00分
水曜日: 12時00分～5時00分"
XEE,ジー,六本木,キャバクラ,19:00～1:00,年中無休,"60分 13,200円〜 
                                    
                                                                                    (税込) (税込)",03-6455-5225,東京都港区六本木3丁目8-15  六本木日拓ビル　2階,https://www.caba2.net/s/11299,https://www.google.com/maps/search/?api=1&query=XEE+%E5%85%AD%E6%9C%AC%E6%9C%A8+%E6%9D%B1%E4%BA%AC%E9%83%BD%E6%B8%AF%E5%8C%BA%E5%85%AD%E6%9C%AC%E6%9C%A83%E4%B8%81%E7%9B%AE8-15,"エリアトップクラスの広さを誇る【XEE - ジー - 】
超有名グループが打ち出す次の一手は六本木へ！
2フロアと超豪華なフロアを誇り話題性はバツグン。
内装には数億円をかけ他の追随を許さない圧倒的な仕上がりとなっています！
六本木で夢のような一夜を過ごしたいならぜひXEEへ。",
Girl’s BAR revju:,レヴュー,歌舞伎町,ガールズバー,20:00～5:00,日曜,"60分 4,000円
                                    
                                                                                    (税・サ別) (税・サ別)",080-8849-2315,東京都新宿区新宿5-18-6  新井ビル3・4階,https://www.caba2.net/s/11116,https://www.google.com/maps/search/?api=1&query=Girl%E2%80%99s+BAR+revju%3A+%E6%AD%8C%E8%88%9E%E4%BC%8E%E7%94%BA+%E6%9D%B1%E4%BA%AC%E9%83%BD%E6%96%B0%E5%AE%BF%E5%8C%BA%E6%96%B0%E5%AE%BF5-18-6,"人気キャストことみさんがプロデュースを務める【Girl's BAR revju: - レヴュー - 】
歌舞伎超の有名店【revju- レヴュー -】の人気キャスト「ことみ」さんがガールズバーをプロデュース！
ガールズバーらしからぬハイクオリティな空間で贅沢な夜をご堪能ください！",
TARO,タロ,池袋駅（西口）,キャバクラ,19:30～LAST,年中無休,"90分 10,000円〜 
                                    
                                                                                    (税・サ込) (税・サ込)",03-3986-7288,東京都豊島区西池袋1-41-8  グランド東京ビル B1F,https://www.caba2.net/s/176,https://www.google.com/maps/search/?api=1&query=TARO+%E6%B1%A0%E8%A2%8B%E9%A7%85%EF%BC%88%E8%A5%BF%E5%8F%A3%EF%BC%89+%E6%9D%B1%E4%BA%AC%E9%83%BD%E8%B1%8A%E5%B3%B6%E5%8C%BA%E8%A5%BF%E6%B1%A0%E8%A2%8B1-41-8,"池袋の超高級ラグジュアリーショークラブ『TARO・タロ』☆
キャスト在籍数も池袋トップクラス。神殿を連想させるメインフロアは、白基調でゴージャスにコーディネートされています。1日2回の本格的SHOW TIMEは、まるで神殿の女神達が舞うかの如く華麗で圧巻です！","木曜日: 19時30分～1時00分
金曜日: 19時30分～1時00分
土曜日: 19時30分～1時00分
日曜日: 19時30分～1時00分 時間変更の可能性
月曜日: 19時30分～1時00分 時間変更の可能性
火曜日: 19時30分～1時00分
水曜日: 19時30分～1時00分"
Orange Terrace,オレンジテラス,歌舞伎町,キャバクラ,20:00～LAST,月曜,"60分 8,000円〜 
                                    
                                                                                    (税・サ別) (税・サ別)",03-6233-8201,東京都新宿区歌舞伎町1-2-5  東陽ビル B1F,https://www.caba2.net/s/17,https://www.google.com/maps/search/?api=1&query=Orange+Terrace+%E6%AD%8C%E8%88%9E%E4%BC%8E%E7%94%BA+%E6%9D%B1%E4%BA%AC%E9%83%BD%E6%96%B0%E5%AE%BF%E5%8C%BA%E6%AD%8C%E8%88%9E%E4%BC%8E%E7%94%BA1-2-5,"歌舞伎町きってのオシャレな店内【Orange Terrace（オレンジテラス）】
そこはまるで西洋のオシャレなガーデンテラス☆ビルのワンフロアを使用した、規格外の壮大なスケール＆ゴージャスな店内、選りすぐりの美女達･･･。メルヘンチックな世界へとあなたを誘います。","木曜日: 20時00分～1時00分
金曜日: 20時00分～1時00分
土曜日: 20時00分～1時00分
日曜日: 20時00分～1時00分 時間変更の可能性
月曜日: 定休日 時間変更の可能性
火曜日: 20時00分～1時00分
水曜日: 20時00分～1時00分"
PHOENIX,フェニックス,池袋駅（東口）,キャバクラ,19:00～LAST,日曜,"60分 6,600円〜 
                                    
                                                                                    (税込) (税込)",03-3987-5341,東京都豊島区東池袋1-15-5  東洋興業ビル 1F,https://www.caba2.net/s/39,https://www.google.com/maps/search/?api=1&query=PHOENIX+%E6%B1%A0%E8%A2%8B%E9%A7%85%EF%BC%88%E6%9D%B1%E5%8F%A3%EF%BC%89+%E6%9D%B1%E4%BA%AC%E9%83%BD%E8%B1%8A%E5%B3%B6%E5%8C%BA%E6%9D%B1%E6%B1%A0%E8%A2%8B1-15-5,"エンターテインメントショークラブ池袋『PHOENIX(フェニックス)』★
他を圧倒する華やかさと存在感…。池袋に城を構える『フェニックス』は、その鮮麗なキャスト達と、魅惑のショータイムによって素晴らしい空間を演出するエンターティナークラブ☆50名以上のキャスト陣があなたをお迎えいたします。","木曜日: 19時00分～1時00分
金曜日: 19時00分～1時00分
土曜日: 19時00分～1時00分
日曜日: 定休日 時間変更の可能性
月曜日: 19時00分～1時00分 時間変更の可能性
火曜日: 19時00分～1時00分
水曜日: 19時00分～1時00分"
愛執 おーばーどーず,オーバードーズ,歌舞伎町,コンカフェ＆バー,12:00～5:00,年中無休,"60分 5,000円
                                    
                                                                                    (税・サ別) (税・サ別)",03-6457-6191,東京都新宿区歌舞伎町1-9-10  Ksビル 3F,https://www.caba2.net/s/11433,https://www.google.com/maps/search/?api=1&query=%E6%84%9B%E5%9F%B7+%E3%81%8A%E3%83%BC%E3%81%B0%E3%83%BC%E3%81%A9%E3%83%BC%E3%81%9A+%E6%AD%8C%E8%88%9E%E4%BC%8E%E7%94%BA+%E6%9D%B1%E4%BA%AC%E9%83%BD%E6%96%B0%E5%AE%BF%E5%8C%BA%E6%AD%8C%E8%88%9E%E4%BC%8E%E7%94%BA1-9-10,"2024年10月1日ついに開院♡愛執おーばーどーず💉
アイドル系の可愛いナース衣装の女の子たちがお客様をお給仕☆お店の内装もとってもキュートな仕様になってますのでテンションあがること間違いなし⤴︎⤴︎ぜひ一度見にきてね★",
AMATERAS,アマテラス,歌舞伎町,キャバクラ,20:00～LAST,日曜,"60分 10,000円〜 
                                    
                                                                                    (税・サ別) (税・サ別)",03-3204-1248,東京都新宿区歌舞伎町2-23-12  チェックメイトビル B1F,https://www.caba2.net/s/7,https://maps.app.goo.gl/Hs5v9aQ8jy6zxxxKA,"歌舞伎町の夜を華麗に照らす御神が『AMATERAS-アマテラス』に舞い降りる。
全てにおいてハイクラスを誇る巨大なラグジュアリー空間で、妖艶で麗しき舞姫たちが、今宵もあなたを夢物語に誘います。",
Angel Feather,エンジェルフェザー,池袋駅（東口）,キャバクラ,19:00～LAST,日曜,"60分 6,600円〜 
                                    
                                                                                    (税込) (税込)",03-5985-7730,東京都豊島区東池袋1-4-2  三経33ビル 1F,https://www.caba2.net/s/109,https://www.google.com/maps/search/?api=1&query=Angel+Feather+%E6%B1%A0%E8%A2%8B%E9%A7%85%EF%BC%88%E6%9D%B1%E5%8F%A3%EF%BC%89+%E6%9D%B1%E4%BA%AC%E9%83%BD%E8%B1%8A%E5%B3%B6%E5%8C%BA%E6%9D%B1%E6%B1%A0%E8%A2%8B1-4-2,"全国規模で展開する有名ブランド店『Angel Fether』☆
全国に3店舗展開中の【Angel Feather(エンジェルフェザー)】!!上質な空間とクオリティーを維持しつつ【癒しと】＆【安らぎ】をお客様にご提供致します。","木曜日: 19時00分～1時00分
金曜日: 19時00分～1時00分
土曜日: 19時00分～1時00分
日曜日: 定休日 時間変更の可能性
月曜日: 19時00分～1時00分 時間変更の可能性
火曜日: 19時00分～1時00分
水曜日: 19時00分～1時00分"
LUIAGUE,リュアーグ,歌舞伎町,キャバクラ,20:00～LAST,日曜,"60分 8,000円〜 
                                    
                                                                                    (税・サ別) (税・サ別)",03-6228-0315,東京都新宿区歌舞伎町1-10-8  台湾同郷協同組合ビル 1F&2F,https://www.caba2.net/s/19,https://www.google.com/maps/search/?api=1&query=LUIAGUE+%E6%AD%8C%E8%88%9E%E4%BC%8E%E7%94%BA+%E6%9D%B1%E4%BA%AC%E9%83%BD%E6%96%B0%E5%AE%BF%E5%8C%BA%E6%AD%8C%E8%88%9E%E4%BC%8E%E7%94%BA1-10-8,"圧倒的高級感、圧倒的集客力を誇る（LUIAGUE-リュアーグ）ワンランク上の上質な空間で優雅なひと時をお過ごしください。
☆2フロアにわたる広々とした豪華な店内と最高レベルのキャスト陣がアナタの素敵な夜を演出してくれます。
ここでしか味わうことのできない極上の時間を是非ご堪能ください。","木曜日: 20時00分～1時00分
金曜日: 20時00分～1時00分
土曜日: 20時00分～1時00分
日曜日: 定休日 時間変更の可能性
月曜日: 20時00分～1時00分 時間変更の可能性
火曜日: 20時00分～1時00分
水曜日: 20時00分～1時00分"
神田茶屋,カンダチャヤ,神田,キャバクラ,18:00～LAST,日曜,"60分 7,150円〜 
                                    
                                                                                    (税込) (税込)",03-5289-7681,東京都千代田区内神田3-8-7  星座ビルB1F,https://www.caba2.net/s/27,https://www.google.com/maps/search/?api=1&query=%E7%A5%9E%E7%94%B0%E8%8C%B6%E5%B1%8B+%E7%A5%9E%E7%94%B0+%E6%9D%B1%E4%BA%AC%E9%83%BD%E5%8D%83%E4%BB%A3%E7%94%B0%E5%8C%BA%E5%86%85%E7%A5%9E%E7%94%B03-8-7,"全てにおいて他店を圧倒するハイレベル【神田茶屋 (カンダチャヤ) 】
神田で最大クラスの大型店舗がついに上陸!!歌舞伎町や六本木のクオリティを神田で実現、アナタの希望を叶えられるお店が神田にあります!!","木曜日: 19時00分～1時00分
金曜日: 19時00分～1時00分
土曜日: 19時00分～1時00分
日曜日: 定休日 時間変更の可能性
月曜日: 19時00分～1時00分 時間変更の可能性
火曜日: 19時00分～1時00分
水曜日: 19時00分～1時00分"
K-Ⅱ,ケーツー,歌舞伎町,ガールズバー,20:00～5:00,年中無休,"40分 2,000円〜 
                                    
                                                                                    (税・サ別) (税・サ別)",03-6233-8851,東京都新宿区歌舞伎町1丁目3番13号  第5金嶋ビル5階,https://www.caba2.net/s/8514,https://www.google.com/maps/search/?api=1&query=K-%E2%85%A1+%E6%AD%8C%E8%88%9E%E4%BC%8E%E7%94%BA+%E6%9D%B1%E4%BA%AC%E9%83%BD%E6%96%B0%E5%AE%BF%E5%8C%BA%E6%AD%8C%E8%88%9E%E4%BC%8E%E7%94%BA1%E4%B8%81%E7%9B%AE3%E7%95%AA13%E5%8F%B7,"高級感溢れるガールズバーの【K-Ⅱ-ケーツー】
映画のワンシーン切り取ったようなお洒落なバーが歌舞伎町に登場！
モノトーンで引き締まった店内はシックで大人の空間を演出。
歌舞伎町らしからぬしっとりとしたフロアを提供いたします。","木曜日: 19時00分～5時00分
金曜日: 19時00分～5時00分
土曜日: 19時00分～5時00分
日曜日: 19時00分～5時00分 時間変更の可能性
月曜日: 19時00分～5時00分 時間変更の可能性
火曜日: 19時00分～5時00分
水曜日: 19時00分～5時00分"
Club 蓮 錦糸町,レン,錦糸町,キャバクラ,20:00～1:00,日曜・祝祭日,"50分 7,000円〜 
                                    
                                                                                    (税・サ別) (税・サ別)",03-6240-2373,東京都墨田区江東橋3-3-10  ICプラザII 1F,https://www.caba2.net/s/793,https://www.google.com/maps/search/?api=1&query=Club+%E8%93%AE+%E9%8C%A6%E7%B3%B8%E7%94%BA+%E9%8C%A6%E7%B3%B8%E7%94%BA+%E6%9D%B1%E4%BA%AC%E9%83%BD%E5%A2%A8%E7%94%B0%E5%8C%BA%E6%B1%9F%E6%9D%B1%E6%A9%8B3-3-10,"日本の巧海が息づく空間で、あなただけの優越を。「CLUB 蓮 - レン」
上質を日常とする大人が、次に求めるもの。それは本物という価値を残しながらも、常に新しく進化し続ける場所。
私たちの挑戦は、今在る上質を塗り替え、新たな快適さと優越を生み出していくことです。
日本特有のきめ細かな心配り、提供するものへこだわりと責任感。美しさと気品を纏いながらも、自由で情熱的な女性達。この場所でしか出会えない魅力を、存分にお愉しみ下さい。","木曜日: 20時00分～1時00分
金曜日: 20時00分～1時00分
土曜日: 20時00分～1時00分
日曜日: 定休日 祝休日の営業時間
月曜日: 定休日 祝休日の営業時間
火曜日: 20時00分～1時00分
水曜日: 20時00分～1時00分"
LABIOS（朝）,ラビオス,歌舞伎町,朝・昼キャバクラ,6:00～12:00,火曜,"60分 8,000円〜 
                                    
                                                                                    (税・サ別) (税・サ別)",03-6273-8939,東京都新宿区歌舞伎町1-11-10  イクザスビル 5F,https://www.caba2.net/s/6679,https://www.google.com/maps/search/?api=1&query=LABIOS%EF%BC%88%E6%9C%9D%EF%BC%89+%E6%AD%8C%E8%88%9E%E4%BC%8E%E7%94%BA+%E6%9D%B1%E4%BA%AC%E9%83%BD%E6%96%B0%E5%AE%BF%E5%8C%BA%E6%AD%8C%E8%88%9E%E4%BC%8E%E7%94%BA1-11-10,"歌舞伎町の新たな朝キャバ『LABIOSラビオス』☆
多くの系列店を持つ有名グループプロデュースによる朝キャバ！バラエティに富んだハイレベルなキャストばかりを集め、お客様をお迎えさせて頂きます♡他では味わえないサービスも充実ご用意☆ご来店お待ちしております♪",
KANALOA,カナロア,高田馬場,キャバクラ,20:00～LAST,日曜,"60分 8,000円
                                    
                                                                                    (税・サ別) (税・サ別)",03-3363-8805,東京都新宿区高田馬場3-1-3  東栄ビル 3F,https://www.caba2.net/s/374,https://www.google.com/maps/search/?api=1&query=KANALOA+%E9%AB%98%E7%94%B0%E9%A6%AC%E5%A0%B4+%E6%9D%B1%E4%BA%AC%E9%83%BD%E6%96%B0%E5%AE%BF%E5%8C%BA%E9%AB%98%E7%94%B0%E9%A6%AC%E5%A0%B43-1-3,"紳士淑女のためのSpecial luxury space『KANALOA』☆
モダンな木目調の落ち着きある店内と、ハイセンス多彩なキャスト陣にてお客様を丁重にお迎え致します。静かな大人のお酒の席をご提供、皆様のご来店心よりお待ちしております。","木曜日: 20時00分～0時00分
金曜日: 20時00分～0時00分
土曜日: 20時00分～0時00分
日曜日: 定休日 時間変更の可能性
月曜日: 20時00分～0時00分 時間変更の可能性
火曜日: 20時00分～0時00分
水曜日: 20時00分～0時00分"
CLUB HUMMER,ハマー,池袋駅（西口）,キャバクラ,20:00～LAST,年中無休,"60分 6,600円〜 
                                    
                                                                                    (税込) (税込)",03-6709-2180,東京都豊島区池袋2-8-2  TYⅡビル 3F,https://www.caba2.net/s/9745,https://maps.app.goo.gl/PD6peAv9gdHo8V3w6,"2フロアにわたる池袋西口の高級キャバクラ☆『CLUB HUMMER』★
最寄り駅徒歩2分の好立地にある池袋の有名高級店★その豪華さに似つかわしくないほどのリーズナブルなお値段にてお客様をお迎えさせていただきます♪",
Snack & Bar Chip,チップ,歌舞伎町,スナキャバ,16:00～5:00,不定休,"60分 5,000円
                                    
                                                                                    (税・サ別) (税・サ別)",03-4500-0982,東京都新宿区歌舞伎町1-12-3  MONビル 5階,https://www.caba2.net/s/11379,https://www.google.com/maps/search/?api=1&query=Snack+%26+Bar+Chip+%E6%AD%8C%E8%88%9E%E4%BC%8E%E7%94%BA+%E6%9D%B1%E4%BA%AC%E9%83%BD%E6%96%B0%E5%AE%BF%E5%8C%BA%E6%AD%8C%E8%88%9E%E4%BC%8E%E7%94%BA1-12-3,"ゴジラビル近く！ゆったり楽しめるスナキャバ【Snack & Bar Chip - チップ - 】
ゴジラビル近くと通いやすい場所にあるチップはゆったりと楽しめるスナキャバタイプの店舗です！
ガールズバーやキャバクラほどギラギラしていないから、日々の疲れを癒すのにピッタリです♪","木曜日: 0時00分～9時00分19時00分～0時00分
金曜日: 0時00分～9時00分19時00分～0時00分
土曜日: 0時00分～9時00分19時00分～0時00分
日曜日: 0時00分～9時00分19時00分～0時00分 時間変更の可能性
月曜日: 0時00分～9時00分19時00分～0時00分 時間変更の可能性
火曜日: 0時00分～9時00分
水曜日: 19時00分～0時00分"
DESIRE -morning-,ディザイアモーニング,歌舞伎町,朝・昼キャバクラ,10:00～19:00,月曜,"60分 7,700円〜 
                                    
                                                                                    (税込) (税込)",080-5892-1608,東京都新宿区歌舞伎町1-11-10  イクザスビル 5F,https://www.caba2.net/s/11288,https://maps.app.goo.gl/4CYXVQzkGGhcUehS6,"歌舞伎町朝昼キャバクラ""DESIRE(ディザイア)""
朝キャバ最有力の歌舞伎町大手グループ経営の店舗♪☆変わらぬクオリティとリーズナブルなお値段にてお客様をお迎えさせて頂きます♪",
club Ferris,フェリス,池袋駅（西口）,キャバクラ,20:00～LAST,月曜,"60分 6,000円〜 
                                    
                                                                                    (税・サ別) (税・サ別)",03-5985-4120,東京都豊島区池袋2-12-13  十二ビル B1F,https://www.caba2.net/s/11120,"https://www.google.com/maps/place/2-ch%C5%8Dme-12-12+Ikebukuro,+Toshima+City,+Tokyo+171-0014/@35.7325054,139.7047498,17z/data=!3m1!4b1!4m6!3m5!1s0x60188d5ec71f2da3:0xbda199431c7c5483!8m2!3d35.7325011!4d139.7073247!16s%2Fg%2F11vhvmd0qg?entry=ttu&g_ep=EgoyMDI1MDIxMi4wIKXMDSoASAFQAw%3D%3D","池袋西口繁華街の最人気店☆『club Ferris-フェリス-』★
実績十分な大手グループにより経営する池袋の店舗☆料金、キャスト共にクオリティ高い接客にてお客様をお迎えさせて頂きます。",
CLUB LITHOS,リトス,新橋,キャバクラ,19:00～LAST,日曜,"60分 5,000円〜 
                                    
                                                                                    (税・サ別) (税・サ別)",03-6811-1245,東京都港区新橋2-14-6  ミクニ新橋ビル7F,https://www.caba2.net/s/6425,https://www.google.com/maps/search/?api=1&query=CLUB+LITHOS+%E6%96%B0%E6%A9%8B+%E6%9D%B1%E4%BA%AC%E9%83%BD%E6%B8%AF%E5%8C%BA%E6%96%B0%E6%A9%8B2-14-6,"新橋烏森口スグの人気大型店！
高級感溢れる内装に選りすぐりのキャスト達が、リトスを華やかに彩ります！
お店の質の割にリーズナブルな価格にて、楽しんで頂けるようクーポンなども発行してお客様のご来店を心よりお待ちしております。","木曜日: 19時00分～1時00分
金曜日: 19時00分～1時00分
土曜日: 19時00分～1時00分
日曜日: 定休日 時間変更の可能性
月曜日: 19時00分～1時00分 時間変更の可能性
火曜日: 19時00分～1時00分
水曜日: 19時00分～1時00分"
Elysion -morning-,エリュシオン,歌舞伎町,朝・昼キャバクラ,10:00～19:00,月曜,"60分 7,000円
                                    
                                                                                    (税・サ別) (税・サ別)",03-6228-0986,東京都新宿区歌舞伎町2-10-5  G1ビル 2F-E室,https://www.caba2.net/s/6788,"https://www.google.com/maps/place/%E3%80%92160-0021+Tokyo,+Shinjuku+City,+Kabukich%C5%8D,+2-ch%C5%8Dme%E2%88%9210%E2%88%925+G+%E2%85%A0/@35.6951858,139.7020221,17z/data=!3m1!4b1!4m6!3m5!1s0x60188cd9100e8919:0xda4b3a9fe7923382!8m2!3d35.6951815!4d139.704597!16s%2Fg%2F12hn0jbq3?entry=ttu&g_ep=EgoyMDI1MDIxMi4wIKXMDSoASAFQAw%3D%3D","目を引く存在感と高級感☆話題の朝キャバ『Elysion〜エリュシオン〜』☆
実績ある経営母体による確かなサービスとクオリティ、自由なフリー指名制度の採用により気軽にお楽しみ頂けます♪日頃よりお客様のご来店を心よりお待ちしております。",
CLUB REVIA,レビア,高円寺,キャバクラ,20:00～LAST,日曜,"50分 2,980円〜 
                                    
                                                                                    (税・サ別) (税・サ別)",03-6454-6167,東京都杉並区高円寺南4-27-15  パレドール高円寺 1F,https://www.caba2.net/s/5349,https://www.google.com/maps/search/?api=1&query=CLUB+REVIA+%E9%AB%98%E5%86%86%E5%AF%BA+%E6%9D%B1%E4%BA%AC%E9%83%BD%E6%9D%89%E4%B8%A6%E5%8C%BA%E9%AB%98%E5%86%86%E5%AF%BA%E5%8D%974-27-15,"高円寺最大の有名店が装いも新たにリニューアルオープン！『CLUB REVIA』☆
☆高円寺最大級の大型キャバクラ高級感漂う豪華な内装とエリア屈指のハイレベルなキャスト陣にてお客様をお迎えいたします♪",
LP TOKYO,エルピートウキョウ,歌舞伎町,キャバクラ,20:00～LAST,日曜,"60分 4,400円〜 
                                    
                                                                                    (税込) (税込)",03-6205-6545,東京都新宿区歌舞伎町1-12-6  歌舞伎町ビル 5F,https://www.caba2.net/s/95,https://www.google.com/maps/search/?api=1&query=LP+TOKYO+%E6%AD%8C%E8%88%9E%E4%BC%8E%E7%94%BA+%E6%9D%B1%E4%BA%AC%E9%83%BD%E6%96%B0%E5%AE%BF%E5%8C%BA%E6%AD%8C%E8%88%9E%E4%BC%8E%E7%94%BA1-12-6,"他に例を見ない、全く新しいスタイル「ネオラウンジ」【LP TOKYO-エルピートウキョウ】がベールを開く。
顔出しNGの理由。。。某芸能事務所所属、某企業勤務、大学生、専門学校生etc…普通のよるの業界では会えない様な女の子に会える場所。
そして、キャバ・クラブ・ガールズバー等とは全く違う遊び方がココに有ります。","木曜日: 20時00分～1時00分
金曜日: 20時00分～1時00分
土曜日: 20時00分～1時00分
日曜日: 定休日 時間変更の可能性
月曜日: 20時00分～1時00分 時間変更の可能性
火曜日: 20時00分～1時00分
水曜日: 20時00分～1時00分"
miumiu,ミュウミュウ,中野,キャバクラ,19:00～LAST,年中無休,"50分 4,400円〜 
                                    
                                                                                    (税込) (税込)",03-3388-6003,東京都中野区中野5-59-1  興産ビル 1F,https://www.caba2.net/s/5245,https://www.google.com/maps/search/?api=1&query=miumiu+%E4%B8%AD%E9%87%8E+%E6%9D%B1%E4%BA%AC%E9%83%BD%E4%B8%AD%E9%87%8E%E5%8C%BA%E4%B8%AD%E9%87%8E5-59-1,"キャストレベル、在籍数トップクラスの『MIUMIU』がリニューアルでさらにクオリティUP★
中野のキャバクラ『ミュウミュウ』。イベントも盛りだくさん！いつまでも爽やかな接客サービスと皆様に愛されるお店を心掛けております。中野にお越しの際には是非、お立ち寄りください！","木曜日: 19時00分～0時00分
金曜日: 19時00分～0時00分
土曜日: 19時00分～0時00分
日曜日: 19時00分～0時00分 時間変更の可能性
月曜日: 19時00分～0時00分 時間変更の可能性
火曜日: 19時00分～0時00分
水曜日: 19時00分～0時00分"
VENUS GARDEN,ヴィーナスガーデン,神田,キャバクラ,20:00～LAST,日曜,"60分 5,000円〜 
                                    
                                                                                    (税・サ別) (税・サ別)",03-3525-4211,東京都千代田区神田鍛冶町2-2-9  共伸ビル 6F,https://www.caba2.net/s/978,https://www.google.com/maps/search/?api=1&query=VENUS+GARDEN+%E7%A5%9E%E7%94%B0+%E6%9D%B1%E4%BA%AC%E9%83%BD%E5%8D%83%E4%BB%A3%E7%94%B0%E5%8C%BA%E7%A5%9E%E7%94%B0%E9%8D%9B%E5%86%B6%E7%94%BA2-2-9,"神田エリアで唯一無二のクオリティー＆コストパフォーマンスを誇る【VENUS GARDEN-ヴィーナスガーデン】
噂を聞きつけたお客様が遠方からご来店される程の人気店!!二つの異なるフロワーでお客様の大切なお時間をお約束致します!!最高の一時を当店【ヴィーナスガーデン】にてお待ち致しております。",
蘭◯,ランマル,歌舞伎町,ショークラブ,19:00～LAST,日曜,"60分 6,600円〜 
                                    
                                                                                    (税込) (税込)",03-3209-8925,東京都新宿区歌舞伎町2-13-6  メトロプラザ1ビル 1F,https://www.caba2.net/s/11,https://www.google.com/maps/search/?api=1&query=%E8%98%AD%E2%97%AF+%E6%AD%8C%E8%88%9E%E4%BC%8E%E7%94%BA+%E6%9D%B1%E4%BA%AC%E9%83%BD%E6%96%B0%E5%AE%BF%E5%8C%BA%E6%AD%8C%E8%88%9E%E4%BC%8E%E7%94%BA2-13-6,"歌舞伎町でも長年君臨する老舗店☆クラブを超えた高級キャバクラがここに！【蘭○〜ランマル〜】★
確かなブランド力で他店を圧倒！揺るぎないネームバリューと、幅広いお客様層の支持を集める『蘭○』。決して色褪せない豪華ショータイムは四半世紀にもわたり今もなお健在です。くつろぎのエグゼクティブクラブ…ここに開幕！","木曜日: 19時00分～1時00分
金曜日: 19時00分～1時00分
土曜日: 19時00分～1時00分
日曜日: 定休日 時間変更の可能性
月曜日: 19時00分～1時00分 時間変更の可能性
火曜日: 19時00分～1時00分
水曜日: 19時00分～1時00分"
azian club,アジアンクラブ,歌舞伎町,キャバクラ,20:00～LAST,年中無休, ,03-3202-4443,東京都新宿区歌舞伎町2-10-1  石黒商事ビル B1F,https://www.caba2.net/s/1,https://www.google.com/maps/search/?api=1&query=azian+club+%E6%AD%8C%E8%88%9E%E4%BC%8E%E7%94%BA+%E6%9D%B1%E4%BA%AC%E9%83%BD%E6%96%B0%E5%AE%BF%E5%8C%BA%E6%AD%8C%E8%88%9E%E4%BC%8E%E7%94%BA2-10-1,"2024年12/13日に堂々リニューアルオープン！【azian club-アジアンクラブ】
歌舞伎町トップを自負する当店はハイクラスの気品あふれる美女揃いのキャスト、徹底された従業員、豪華な内装、お客様へのサービス全てがトップレベルの当店でワンランク上の素敵な時間をお過ごし下さい。スタッフ一同、心よりお待ちしております。","木曜日: 20時00分～1時00分
金曜日: 20時00分～1時00分
土曜日: 20時00分～1時00分
日曜日: 定休日 時間変更の可能性
月曜日: 20時00分～1時00分 時間変更の可能性
火曜日: 20時00分～1時00分
水曜日: 20時00分～1時00分"
蒼 SOU-2-（昼）,ソウツー,歌舞伎町,昼キャバクラ,10:00～19:00,月曜,"60分 9,450円〜 
                                    
                                                                                    (税・サ込) (税・サ込)",03-6457-6345,東京都新宿区歌舞伎町1-11-10  イクザスビル 4F,https://www.caba2.net/s/160,"https://www.google.com/maps/place/%E3%80%92160-0021+Tokyo,+Shinjuku+City,+Kabukich%C5%8D,+1-ch%C5%8Dme%E2%88%9211%E2%88%9210+%E4%B8%89%E7%B5%8C+42/@35.6951403,139.700382,17z/data=!3m1!4b1!4m6!3m5!1s0x60188cd84b60301d:0x6d43a79bfc848ef2!8m2!3d35.695136!4d139.7029569!16s%2Fg%2F11g8q3c9bg?entry=ttu&g_ep=EgoyMDI1MDIxMi4wIKXMDSoASAFQAw%3D%3D","歌舞伎町キャバクラ最長の営業時間でいつでもお客様大歓迎！『クラブ蒼ソウ-2nd-』☆
歌舞伎町でも大人気の『クラブ蒼ソウ-2nd-』!!☆お昼からハイテンションでいきたいアナタも、そうでないアナタも絶対楽しめちゃう☆人気の秘密がここにあります(*´∀`)b",
ARC,アーク,歌舞伎町,キャバクラ,21:00～LAST,火曜,"60分 11,000円〜 
                                    
                                                                                    (税込) (税込)",03-6205-9901,東京都新宿区歌舞伎町1-3-11  梅村ビル 4F,https://www.caba2.net/s/6083,https://maps.app.goo.gl/7qJDGeeM4cgKpZCx7,"一番旬なキャストを集め歌舞伎町一と言っても過言ではない【ARC・アーク】
個性豊かなキャストを集めどなたでも楽しめるバラエティーに富んだエンターテイメントで上質な空間を提供致します。","木曜日: 19時00分～0時00分
金曜日: 19時00分～0時00分
土曜日: 19時00分～0時00分
日曜日: 19時00分～0時00分 時間変更の可能性
月曜日: 19時00分～0時00分 時間変更の可能性
火曜日: 19時00分～0時00分
水曜日: 定休日"
粋（昼）,スイ,歌舞伎町,昼キャバクラ,7:00～17:00,月曜,"60分 7,700円〜 
                                    
                                                                                    (税込) (税込)",03-6457-3556,東京都新宿区歌舞伎町2-10-4  ジェストビル 2F,https://www.caba2.net/s/105,https://www.google.com/maps/search/?api=1&query=%E7%B2%8B%EF%BC%88%E6%98%BC%EF%BC%89+%E6%AD%8C%E8%88%9E%E4%BC%8E%E7%94%BA+%E6%9D%B1%E4%BA%AC%E9%83%BD%E6%96%B0%E5%AE%BF%E5%8C%BA%E6%AD%8C%E8%88%9E%E4%BC%8E%E7%94%BA2-10-4,"連日大賑わいの歌舞伎町昼キャバ『粋-SUI-(昼)』★
朝キャバ激戦区の歌舞伎町でも人気が高い『粋-SUI-』☆ハイグレードで綺麗な店内に、粒ぞろいのヴィーナス達があなたをお出迎えいたします☆",
SENA LAND,セナランド,歌舞伎町,ガールズバー,21:00～6:00,日曜,"60分 4,000円
                                    
                                                                                    (税・サ別) (税・サ別)",080-4475-0105,東京都新宿区歌舞伎町2丁目10-7  ダイヤモンドビル5F,https://www.caba2.net/s/11293,https://maps.app.goo.gl/frmHhX5wRuy4kkzA9,"元キャバ嬢オーナーのハイスペックガールズバー【 SENALAND - セナランド - 】
元キャバ嬢がプロデュースするクオリティ間違いナシのガルバ！
可愛い女の子とお酒を楽しむならココで決まりです♪",
にゃBBIT,ニャビット,歌舞伎町,ガールズバー,19:00～LAST,年中無休,"60分 2,500円〜 
                                    
                                                                                    (税・サ別) (税・サ別)",03-6823-4244,東京都新宿区歌舞伎町1-17-5  第二安田ビル 2F,https://www.caba2.net/s/6874,https://www.google.com/maps/search/?api=1&query=%E3%81%AB%E3%82%83BBIT+%E6%AD%8C%E8%88%9E%E4%BC%8E%E7%94%BA+%E6%9D%B1%E4%BA%AC%E9%83%BD%E6%96%B0%E5%AE%BF%E5%8C%BA%E6%AD%8C%E8%88%9E%E4%BC%8E%E7%94%BA1-17-5,"癒し系コスプレガールズバー☆『にゃBBIT』★
バニーガールなどともまた違うかわいい系コスプレの女の子たちが多数☆有名大手が手掛けるお店となりますので、確かなサービスとリーズナブルな価格をお客様にご提供致しております♪",
Chou Chou IKB 池袋西口店,シュシュ,池袋駅（西口）,女子大生キャバクラ,17:30～23:30,年中無休,"40分 4,800円〜 
                                    
                                                                                    (税・サ込) (税・サ込)",03-3986-8084,東京都豊島区西池袋1-31-5  白井ビル 1F/B1F,https://www.caba2.net/s/5932,https://www.google.com/maps/search/?api=1&query=Chou+Chou+IKB+%E6%B1%A0%E8%A2%8B%E8%A5%BF%E5%8F%A3%E5%BA%97+%E6%B1%A0%E8%A2%8B%E9%A7%85%EF%BC%88%E8%A5%BF%E5%8F%A3%EF%BC%89+%E6%9D%B1%E4%BA%AC%E9%83%BD%E8%B1%8A%E5%B3%B6%E5%8C%BA%E8%A5%BF%E6%B1%A0%E8%A2%8B1-31-5,"現役女子大学生専門キャバクラ　(ChouChou-シュシュ)池袋西口店
100%現役女子大生のキャバクラ！池袋エリアでも人気のお店だから合コン気分で楽しい時間を過ごせる！
1日平均30人以上が出勤しているので！いつ行ってもより楽しく遊べること間違いナシ♪",
ALTERFATE,オルターフェイト,中野,キャバクラ,19:00～LAST,年中無休,"60分 4,000円〜 
                                    
                                                                                    (税・サ別) (税・サ別)",03-5942-7725,東京都中野区中野5-59-1  興産ビル 2F,https://www.caba2.net/s/401,https://www.google.com/maps/search/?api=1&query=ALTERFATE+%E4%B8%AD%E9%87%8E+%E6%9D%B1%E4%BA%AC%E9%83%BD%E4%B8%AD%E9%87%8E%E5%8C%BA%E4%B8%AD%E9%87%8E5-59-1,"中野トップクラスの人気大型店「ALTER FATE」！
落ち着きある店内雰囲気なので接待での利用にも最適！中野のキャバクラならオルターフェイトで決まり♪","木曜日: 19時00分～1時00分
金曜日: 19時00分～1時00分
土曜日: 19時00分～1時00分
日曜日: 19時00分～1時00分 時間変更の可能性
月曜日: 19時00分～1時00分 時間変更の可能性
火曜日: 19時00分～1時00分
水曜日: 19時00分～1時00分"
revju（朝）,レヴューモーニング,歌舞伎町,朝・昼キャバクラ,6:00～12:00,年中無休,"60分 8,000円
                                    
                                                                                    (税・サ別) (税・サ別)",03-5155-9577,東京都新宿区歌舞伎町2-10-7  ダイアモンドビルB2F,https://www.caba2.net/s/11175,https://www.google.com/maps/search/?api=1&query=revju%EF%BC%88%E6%9C%9D%EF%BC%89+%E6%AD%8C%E8%88%9E%E4%BC%8E%E7%94%BA+%E6%9D%B1%E4%BA%AC%E9%83%BD%E6%96%B0%E5%AE%BF%E5%8C%BA%E6%AD%8C%E8%88%9E%E4%BC%8E%E7%94%BA2-10-7,"歌舞伎町でバツグンのクオリティを誇るレヴュー朝の部【朝レヴュー - レヴュー - 】
日本一の歓楽街でバツグンの人気があるレヴュー。
煌びやかな世界観と美しい美女たちが極上の時間を演出を致します。",
CLUB 令-2部-（朝）,レイ,歌舞伎町,朝・昼キャバクラ,6:00～19:00,年中無休,"60分 5,000円〜 
                                    
                                                                                    (税・サ込) (税・サ込)",03-6233-9554,東京都新宿区歌舞伎町1-3-11  梅村ビル 3F,https://www.caba2.net/s/5414,https://www.google.com/maps/search/?api=1&query=CLUB+%E4%BB%A4-2%E9%83%A8-%EF%BC%88%E6%9C%9D%EF%BC%89+%E6%AD%8C%E8%88%9E%E4%BC%8E%E7%94%BA+%E6%9D%B1%E4%BA%AC%E9%83%BD%E6%96%B0%E5%AE%BF%E5%8C%BA%E6%AD%8C%E8%88%9E%E4%BC%8E%E7%94%BA1-3-11,"令和の始まりと共に誕生した歌舞伎町朝キャバ☆その名も『令-Rei-』☆
歌舞伎町の朝を豪華に彩る人気店☆早朝より多数のハイクオリティキャストが待機し、お客様のご来店をお待ちしております♪
白と黒を基調とした落ち着きある店内にて至福の癒し時間をご提供☆
是非一度ご来店ください。スタッフ一同お待ちしております。",
Cuuute,キュート,中野,キャバクラ,18:30～LAST,日曜,"60分 3,500円〜 
                                    
                                                                                    (税・サ別) (税・サ別)",03-5380-8105,東京都中野区中野5-62-6  吉澤ビル B1F,https://www.caba2.net/s/390,https://www.google.com/maps/search/?api=1&query=Cuuute+%E4%B8%AD%E9%87%8E+%E6%9D%B1%E4%BA%AC%E9%83%BD%E4%B8%AD%E9%87%8E%E5%8C%BA%E4%B8%AD%E9%87%8E5-62-6,"イベント満載、数ある中野のお店で迷ったらまずは『Cuuute(キュート)』へ☆
中野ならではのアットホームな雰囲気の中で、『Cuuute(キュート)』でハイレベルなキャスト達と楽しい時間をお過ごし下さい☆",
Glove,グローブ,歌舞伎町,キャバクラ,19:30～LAST,日曜,"60分 4,500円〜 
                                    
                                                                                    (税・サ別) (税・サ別)",03-3207-8777,東京都新宿区歌舞伎町1-9-10  Ksビル B1F,https://www.caba2.net/s/91,https://maps.app.goo.gl/4hUkF5ibuoBPoVis7,"1994年からつづく老舗正統派キャバクラの【Glove - グローブ - 】
老舗らしく安定したクオリティと落ち着いた客層が売りのグローブ。
大人の社交場らしくしっとりと夜のお酒をたしなむ事ができます。
勿論、美女とサービスが素晴らしいのは言うまでもありません。",
粋（朝）,スイ,歌舞伎町,朝キャバクラ,日の出～9:00,月曜,"60分 7,700円〜 
                                    
                                                                                    (税込) (税込)",03-6457-3556,東京都新宿区歌舞伎町2-10-4  ジェストビル 2F,https://www.caba2.net/s/72,https://www.google.com/maps/search/?api=1&query=%E7%B2%8B%EF%BC%88%E6%9C%9D%EF%BC%89+%E6%AD%8C%E8%88%9E%E4%BC%8E%E7%94%BA+%E6%9D%B1%E4%BA%AC%E9%83%BD%E6%96%B0%E5%AE%BF%E5%8C%BA%E6%AD%8C%E8%88%9E%E4%BC%8E%E7%94%BA2-10-4,"長年の実績ある大手経営の最上のサービス『粋-SUI-(朝)』☆
朝キャバ激戦区の歌舞伎町でも人気が高い『粋-SUI-』☆朝からワイワイ騒ぎたい方からゆったりと自分のペースで飲みたい方にはおすすめのお店となっております。粒ぞろいのヴィーナス達があなたをお出迎えいたします☆是非一度ご来店下さい。",
Gentleman'z Club,ジェントルマンズクラブ,歌舞伎町,キャバクラ,20:00～LAST,日曜・祝祭日,"60分 10,000円〜 
                                    
                                                                                    (税・サ込) (税・サ込)",03-5155-5399,東京都新宿区歌舞伎町2-10-7  ダイアモンドビル B1F,https://www.caba2.net/s/2,https://www.google.com/maps/search/?api=1&query=Gentleman%27z+Club+%E6%AD%8C%E8%88%9E%E4%BC%8E%E7%94%BA+%E6%9D%B1%E4%BA%AC%E9%83%BD%E6%96%B0%E5%AE%BF%E5%8C%BA%E6%AD%8C%E8%88%9E%E4%BC%8E%E7%94%BA2-10-7,"歌舞伎町で伝説のお店がその名も……Gentleman’z Club（ジェントルマンズクラブ）
歌舞伎町の高級キャバクラGentleman’z Club（ジェントルマンズクラブ）は、すべてにおいて超一流のサービスを提供
歌舞伎町を代表する、ハイクラスなキャストたちの最高のおもてなしが堪能できます。
他では味わえないサービスに心奪われリピート間違いなし！歌舞伎町のトップクラスの店でぜひ特別なひと時をお楽しみください。","木曜日: 20時00分～5時00分
金曜日: 20時00分～5時00分
土曜日: 20時00分～5時00分
日曜日: 定休日 時間変更の可能性
月曜日: 20時00分～5時00分 時間変更の可能性
火曜日: 20時00分～5時00分
水曜日: 20時00分～5時00分"
GRANDE,グランデ,池袋駅（東口）,キャバクラ,19:00～1:00,日曜,"60分 5,500円〜 
                                    
                                                                                    (税込) (税込)",03-6709-0505,東京都豊島区東池袋1-40-5  MKビル 2F,https://www.caba2.net/s/5936,https://maps.app.goo.gl/KtkcL5DoRvmBs1xx5,"☆池袋エリア屈指の有名店【GRANDE-グランデ】☆駅から1番近いキャバクラです♪
池袋東口の最寄りキャバクラ★高級感のあるゴージャスな店内と多数のバリエーションに富んだキャスト陣にてお客様に至高のひとときをお届けさせて頂きます♪",
ANELA,アネラ,歌舞伎町,キャバクラ,20:00～LAST,年中無休,"60分 10,000円〜 
                                    
                                                                                    (税・サ別) (税・サ別)",03-6273-9199,東京都新宿区歌舞伎町2-10-4  ジェストビル 4F,https://www.caba2.net/s/6766,https://www.google.com/maps/search/?api=1&query=ANELA+%E6%AD%8C%E8%88%9E%E4%BC%8E%E7%94%BA+%E6%9D%B1%E4%BA%AC%E9%83%BD%E6%96%B0%E5%AE%BF%E5%8C%BA%E6%AD%8C%E8%88%9E%E4%BC%8E%E7%94%BA2-10-4,"歌舞伎町に大人の為のラグジュアリー空間ANELA【アネラ】
落ち着きのある趣の店内とエリア最高級のキャスト達が貴方へ至福の時間をお約束致します。是非一度ご来店下さい！
ハイレベルなキャストと魅惑の夜をお楽しみください。","木曜日: 7時00分～18時00分20時00分～1時00分
金曜日: 7時00分～18時00分20時00分～1時00分
土曜日: 7時00分～18時00分20時00分～1時00分
日曜日: 7時00分～18時00分20時00分～1時00分 時間変更の可能性
月曜日: 20時00分～1時00分 時間変更の可能性
火曜日: 7時00分～18時00分20時00分～1時00分
水曜日: 7時00分～18時00分20時00分～1時00分"
TNC,トウキョウナカノコレクション,中野,キャバクラ,20:00～LAST,日曜,"50分 2,980円〜 
                                    
                                                                                    (税・サ別) (税・サ別)",03-5340-7350,東京都中野区中野2-25-3  阿形ビル 3F,https://www.caba2.net/s/5850,https://www.google.com/maps/search/?api=1&query=TNC+%E4%B8%AD%E9%87%8E+%E6%9D%B1%E4%BA%AC%E9%83%BD%E4%B8%AD%E9%87%8E%E5%8C%BA%E4%B8%AD%E9%87%8E2-25-3,"中野の人気店がRENEWAL☆TNC〜トウキョウナカノコレクション〜
ズバ抜けたキャストクオリティとリーズナブルにお楽しみ頂けることで不動の人気を誇る【TNC〜トウキョウナカノコレクション〜】が7月よりリニューアルオープンで帰ってきます☆装いも新たにさらなるサービス展開でお客様をお迎えさせて頂きます♪","木曜日: 20時00分～1時00分
金曜日: 20時00分～1時00分
土曜日: 20時00分～1時00分
日曜日: 定休日 時間変更の可能性
月曜日: 20時00分～1時00分 時間変更の可能性
火曜日: 20時00分～1時00分
水曜日: 20時00分～1時00分"
CLUB 蓮 上野,レン,上野,キャバクラ,20:00～1:00,日曜・祝祭日,"50分 8,000円〜 
                                    
                                                                                    (税・サ別) (税・サ別)",03-3834-8568,東京都台東区上野2-12-11  守田宝丹ビル1F,https://www.caba2.net/s/6364,https://www.google.com/maps/search/?api=1&query=CLUB+%E8%93%AE+%E4%B8%8A%E9%87%8E+%E4%B8%8A%E9%87%8E+%E6%9D%B1%E4%BA%AC%E9%83%BD%E5%8F%B0%E6%9D%B1%E5%8C%BA%E4%B8%8A%E9%87%8E2-12-11,"高揚感に満ちた、至福のひと時をあなたに。「CLUB 蓮 - レン」
江戸時代から、文化の中心として栄えてきた上野。次々と良きものが生まれては、時を短くして飽和されていく。私たちの挑戦は、その上野に新たな文化を生み出し、恒久的に繁栄させていくことです。
本物のみに拘り続け、他の追従を許さない居心地を提供する。決して真似できない、優れた感性の一つひとつが、上質な空間、サービス、おもてなしの常識を覆していきます。
凛とした和の空間に、匠がその技と遊び心を散らかせる。伝統工芸と現代アートが織りなす、類なき非日常が誕生します。壮大な和花のオブジェや壁一面のフラワーディスプレイ、大理石の掘りごたつなど、 見応えある演出の数々をぜひお愉しみください。現代人に必要とされる感性と、本物志向にお応えする確かな価値。その両面からあなたをもてなします。","木曜日: 20時00分～1時00分
金曜日: 20時00分～1時00分
土曜日: 20時00分～1時00分
日曜日: 定休日 祝休日の営業時間
月曜日: 定休日 祝休日の営業時間
火曜日: 20時00分～1時00分
水曜日: 20時00分～1時00分"
BACHELOR,バチェラー,上野,キャバクラ,20:00～LAST,年中無休,"60分 7,000円〜 
                                    
                                                                                    (税・サ別) (税・サ別)",03-5834-3857,東京都文京区湯島3-39-7  湯島ASビルB1F,https://www.caba2.net/s/11307,https://www.google.com/maps/search/?api=1&query=BACHELOR+%E4%B8%8A%E9%87%8E+%E6%9D%B1%E4%BA%AC%E9%83%BD%E6%96%87%E4%BA%AC%E5%8C%BA%E6%B9%AF%E5%B3%B63-39-7,"上野でも群を抜く人気店『Club BANDIT（バンディット）』が『BACHELOR（バチェラー）』になりリニューアル！！
店内の設備環境にこだわりを持ちキャスト陣も上野エリアトップクラス!!若くてオシャレなキャストから、落ち着きのある大人のキャストまで在籍！幅広いお客様にお楽しみいただけます。","木曜日: 20時00分～1時00分
金曜日: 20時00分～1時00分
土曜日: 20時00分～1時00分
日曜日: 20時00分～1時00分 時間変更の可能性
月曜日: 20時00分～1時00分 時間変更の可能性
火曜日: 20時00分～1時00分
水曜日: 20時00分～1時00分"
Iris,アイリス,赤坂,キャバクラ,19:00～LAST,日曜,"60分 6,000円〜 
                                    
                                                                                    (税・サ別) (税・サ別)",03-6435-5862,東京都港区赤坂3-11-14  赤坂ベルゴビル B1F,https://www.caba2.net/s/5969,https://www.google.com/maps/search/?api=1&query=Iris+%E8%B5%A4%E5%9D%82+%E6%9D%B1%E4%BA%AC%E9%83%BD%E6%B8%AF%E5%8C%BA%E8%B5%A4%E5%9D%823-11-14,"リーズナブルな価格で高級店を堪能。赤坂新規店『Iris(アイリス)』★
落ち着きあるくつろぎのモダン空間と洗練されたバリエーションに富んだキャスト陣にて、他とは一線置く至福のひとときをお客様にご提供させて頂きます♪","木曜日: 19時00分～1時00分
金曜日: 19時00分～1時00分
土曜日: 19時00分～1時00分
日曜日: 定休日 祝休日の営業時間
月曜日: 20時00分～1時00分 祝休日の営業時間
火曜日: 19時00分～1時00分
水曜日: 19時00分～1時00分"
RIO ROPPONGI,リオ,六本木,キャバクラ,20:00～LAST,不定休,"60分 10,000円〜 
                                    
                                                                                    (税・サ別) (税・サ別)",03-6804-5569,東京都港区六本木3-8-18  三経41ビル 1F,https://www.caba2.net/s/11172,https://maps.app.goo.gl/oPTT8XGUhqodPGeN8,"六本木に新たなRIO誕生【RIO ROPPONGI - リオ - 】
福岡で20店舗以上を展開する超有名グループ、東京店舗第2弾！
新橋に続き六本木にあのRIOが降り立ちました。
全てが圧倒的ハイレベルな極上の時間をお楽しみ下さい。","木曜日: 20時00分～1時00分
金曜日: 20時00分～1時00分
土曜日: 20時00分～1時00分
日曜日: 定休日 時間変更の可能性
月曜日: 20時00分～1時00分 時間変更の可能性
火曜日: 20時00分～1時00分
水曜日: 20時00分～1時00分"
PROUDIA,プラウディア,歌舞伎町,キャバクラ,20:00～LAST,不定休,"60分 9,000円〜 
                                    
                                                                                    (税・サ別) (税・サ別)",03-3232-6572,東京都新宿区歌舞伎町2-26-3  互福ビル 1F正面,https://www.caba2.net/s/8,https://www.google.com/maps/search/?api=1&query=PROUDIA+%E6%AD%8C%E8%88%9E%E4%BC%8E%E7%94%BA+%E6%9D%B1%E4%BA%AC%E9%83%BD%E6%96%B0%E5%AE%BF%E5%8C%BA%E6%AD%8C%E8%88%9E%E4%BC%8E%E7%94%BA2-26-3,"新宿歌舞伎町において知名度トップクラスの有名キャバクラ、PROUDIA-プラウディア
新宿・歌舞伎町の中心に位置するPROUDIAはキャバクラ業界でも有名なハイレベルキャストが常に在籍するお店。幻想的で神秘的、大型フロアの快適空間―PROUDIAで最上級の「煌きにあふれた時間」を心ゆくまでお楽しみください。","木曜日: 20時00分～1時00分
金曜日: 20時00分～1時00分
土曜日: 20時00分～1時00分
日曜日: 20時00分～1時00分 時間変更の可能性
月曜日: 20時00分～1時00分 時間変更の可能性
火曜日: 20時00分～1時00分
水曜日: 20時00分～1時00分"
ANELA（朝）,アネラ,歌舞伎町,朝・昼キャバクラ,7:00～18:00,月曜,"60分 7,000円〜 
                                    
                                                                                    (税・サ別) (税・サ別)",03-6273-9199,東京都新宿区歌舞伎町2-10-4  ジェストビル 4F,https://www.caba2.net/s/5852,https://www.google.com/maps/search/?api=1&query=ANELA%EF%BC%88%E6%9C%9D%EF%BC%89+%E6%AD%8C%E8%88%9E%E4%BC%8E%E7%94%BA+%E6%9D%B1%E4%BA%AC%E9%83%BD%E6%96%B0%E5%AE%BF%E5%8C%BA%E6%AD%8C%E8%88%9E%E4%BC%8E%E7%94%BA2-10-4,"ハイレベルなキャストばかりを集めた歌舞伎町朝キャバ『アネラ（朝）』☆
全てのお客様にご満足頂くための至極のサービスをご提供する環境を万全整えております。病みつきになること間違いなしの楽しい時間をぜひご堪能くださいませ♪","木曜日: 7時00分～18時00分20時00分～1時00分
金曜日: 7時00分～18時00分20時00分～1時00分
土曜日: 7時00分～18時00分20時00分～1時00分
日曜日: 7時00分～18時00分20時00分～1時00分 時間変更の可能性
月曜日: 20時00分～1時00分 時間変更の可能性
火曜日: 7時00分～18時00分20時00分～1時00分
水曜日: 7時00分～18時00分20時00分～1時00分"
Sparkle,スパークル,歌舞伎町,キャバクラ,21:00～LAST,日曜,"60分 10,000円〜 
                                    
                                                                                    (税・サ別) (税・サ別)",03-6302-1785,東京都新宿区歌舞伎町2-25-5  亜光ビル B1F,https://www.caba2.net/s/10615,https://www.google.com/maps/search/?api=1&query=Sparkle+%E6%AD%8C%E8%88%9E%E4%BC%8E%E7%94%BA+%E6%9D%B1%E4%BA%AC%E9%83%BD%E6%96%B0%E5%AE%BF%E5%8C%BA%E6%AD%8C%E8%88%9E%E4%BC%8E%E7%94%BA2-25-5,"キャスト在籍数、接客レベル共にトップクラス『Sparkle』☆
新たに夜の時間に進出！さらに遊びやすく、お楽しみ頂けるようになりました☆ハイクオリティはそのままに♪どなたにもご満足頂けるおもてなしでお迎えさせて頂きます！",
l`pur,ルピア,赤坂,キャバクラ,20:00～LAST,日曜・祝祭日,"60分 8,000円
                                    
                                                                                    (税・サ別) (税・サ別)",03-5797-7270,東京都港区赤坂3-11-7  ソシアル赤坂 3F,https://www.caba2.net/s/10756,https://www.google.com/maps/search/?api=1&query=l%60pur+%E8%B5%A4%E5%9D%82+%E6%9D%B1%E4%BA%AC%E9%83%BD%E6%B8%AF%E5%8C%BA%E8%B5%A4%E5%9D%823-11-7,"選りすぐりのキャストとの至高のひと時『l`pur -ルピア-』★
洗練された豪華内装とリーズナブルな価格設定。お一人様から団体様、接待でのご利用など様々にご活用しやすいお店となっております。","木曜日: 20時00分～2時00分
金曜日: 20時00分～2時00分
土曜日: 20時00分～2時00分
日曜日: 定休日 祝休日の営業時間
月曜日: 定休日 祝休日の営業時間
火曜日: 20時00分～2時00分
水曜日: 20時00分～2時00分"
BAR DYSTOPIA,ディストピア,歌舞伎町,コンセプトバー,19:00～5:00,年中無休,"60分 3,000円
                                    
                                                                                    (税・サ別) (税・サ別)",03-6302-1933,東京都新宿区歌舞伎町2-11-11  KCビル5F,https://www.caba2.net/s/6193,https://www.google.com/maps/search/?api=1&query=BAR+DYSTOPIA+%E6%AD%8C%E8%88%9E%E4%BC%8E%E7%94%BA+%E6%9D%B1%E4%BA%AC%E9%83%BD%E6%96%B0%E5%AE%BF%E5%8C%BA%E6%AD%8C%E8%88%9E%E4%BC%8E%E7%94%BA2-11-11,"激戦区歌舞伎町でオープン以来人気のお店【ディストピア】
歌舞伎町の隠れ家的人気店!!!赤と黒をコンセプトにした小悪魔の館！
カワイイだけじゃない！飲めるキャスト達と限界飲酒しませんか？
※当店はコンセプトバーでありコンカフェではありません。","木曜日: 18時00分～5時00分
金曜日: 18時00分～5時00分
土曜日: 18時00分～5時00分
日曜日: 18時00分～5時00分 時間変更の可能性
月曜日: 18時00分～5時00分 時間変更の可能性
火曜日: 18時00分～5時00分
水曜日: 18時00分～5時00分"
ATLANTIS,アトランティス,上野,キャバクラ,20:00～LAST,年中無休,"60分 8,000円〜 
                                    
                                                                                    (税・サ別) (税・サ別)",03-6806-0047,東京都台東区上野2-10-4  池之端会館 2F,https://www.caba2.net/s/3824,https://www.google.com/maps/search/?api=1&query=ATLANTIS+%E4%B8%8A%E9%87%8E+%E6%9D%B1%E4%BA%AC%E9%83%BD%E5%8F%B0%E6%9D%B1%E5%8C%BA%E4%B8%8A%E9%87%8E2-10-4,"繁華街上野の中でも群を抜いた高級店☆【ATLANTIS-アトランティス】
数多くのハイレベルなキャストを取り揃えております♪リーズナブルなお値段からお楽しみいただけるシステムとなっておりますので、最寄りお越しの際には是非ご利用下さいませ☆",
妃翠,ヒスイ,六本木,キャバクラ,20:00～LAST,日曜,"60分 12,000円〜 
                                    
                                                                                    (税・サ別) (税・サ別)",03-6447-1851,東京都港区六本木3-13-14  ゴトウビルディング3rd 2F,https://www.caba2.net/s/4031,https://www.google.com/maps/search/?api=1&query=%E5%A6%83%E7%BF%A0+%E5%85%AD%E6%9C%AC%E6%9C%A8+%E6%9D%B1%E4%BA%AC%E9%83%BD%E6%B8%AF%E5%8C%BA%E5%85%AD%E6%9C%AC%E6%9C%A83-13-14,"六本木エリア話題の人気店!!その名は…妃翠-ヒスイ!!
総面積100坪を誇る豪華な内装と和モダンをイメージした居心地の良い空間はまさに圧巻!!豪華な内装が霞んでしまうかのようなエリア最上級のキャスト陣がお客様を特別な空間へと誘います。是非一度妃翠（ヒスイ)にお越し下さいませ。",
志留久 葛西店,シルク,葛西,キャバクラ,19:00～LAST,年中無休,"60分 4,500円
                                    
                                                                                    (税・サ込) (税・サ込)",03-3877-4645,東京都江戸川区東葛西6-4-2  アロー葛西駅前ビル 3F,https://www.caba2.net/s/724,https://www.google.com/maps/search/?api=1&query=%E5%BF%97%E7%95%99%E4%B9%85+%E8%91%9B%E8%A5%BF%E5%BA%97+%E8%91%9B%E8%A5%BF+%E6%9D%B1%E4%BA%AC%E9%83%BD%E6%B1%9F%E6%88%B8%E5%B7%9D%E5%8C%BA%E6%9D%B1%E8%91%9B%E8%A5%BF6-4-2,"包まれる上質な雰囲気と、最高峰の店内と落ち着いた時間を、紳士的なお客様と共に
当店にご来店されるお客様の9割は、【紳士的なサラリーマン】のお客様！ゆったりとした雰囲気の中、安心しておしゃべりを楽しめます。","木曜日: 19時00分～1時00分
金曜日: 19時00分～1時00分
土曜日: 19時00分～1時00分
日曜日: 定休日 時間変更の可能性
月曜日: 19時00分～1時00分 時間変更の可能性
火曜日: 19時00分～1時00分
水曜日: 19時00分～1時00分"
CELUX,セリュックス,歌舞伎町,キャバクラ,21:00～1:00,日曜,"60分 9,000円〜 
                                    
                                                                                    (税・サ別) (税・サ別)",03-5291-9330,東京都新宿区歌舞伎町1-9-6  三経32ビル B1F,https://www.caba2.net/s/3731,https://www.google.com/maps/search/?api=1&query=CELUX+%E6%AD%8C%E8%88%9E%E4%BC%8E%E7%94%BA+%E6%9D%B1%E4%BA%AC%E9%83%BD%E6%96%B0%E5%AE%BF%E5%8C%BA%E6%AD%8C%E8%88%9E%E4%BC%8E%E7%94%BA1-9-6,"歌舞伎町でラグジュアリーな時間を過ごせる【CELUX - セリュックス - 】
歌舞伎町でもトップクラスの知名度を誇るセリュックス。
その知名度は多くのメディアに扱われ、撮影の舞台に使われるほど。
多くのお客様に満足して頂くため、今宵も最高のサービスを提供します。",
CLASSIC,クラシック,渋谷,キャバクラ,21:00～LAST,日曜,"60分 5,000円
                                    
                                                                                    (税・サ別) (税・サ別)",080-8108-0551,東京都渋谷区道玄坂1-6-2  渋谷ファイブビル 3F-C号,https://www.caba2.net/s/6304,https://www.google.com/maps/search/?api=1&query=CLASSIC+%E6%B8%8B%E8%B0%B7+%E6%9D%B1%E4%BA%AC%E9%83%BD%E6%B8%8B%E8%B0%B7%E5%8C%BA%E9%81%93%E7%8E%84%E5%9D%821-6-2,"渋谷エリアで実績ある人気店『CLASSIC』★
バリエーションに富んだキャストが在籍し、上質なもてなしに定評のある渋谷の人気キャバクラ。リーズナブルな価格で高級店さながらのおもてなしにてお客様をお迎えさせて頂きます。",
EDITION,エディション,歌舞伎町,キャバクラ,21:00～1:00,日曜,"60分 8,000円〜 
                                    
                                                                                    (税・サ別) (税・サ別)",03-5155-4166,"東京都新宿区歌舞伎町1-3-15　  ザ・カテリーナビル2,3,4F",https://www.caba2.net/s/11268,https://www.google.com/maps/search/?api=1&query=EDITION+%E6%AD%8C%E8%88%9E%E4%BC%8E%E7%94%BA+%E6%9D%B1%E4%BA%AC%E9%83%BD%E6%96%B0%E5%AE%BF%E5%8C%BA%E6%AD%8C%E8%88%9E%E4%BC%8E%E7%94%BA1-3-15%E3%80%80,"歌舞伎町エリアでも屈指の高級感を放つ【EDITION - エディション - 】
シックでラウンジのような高級感に包まれた内装。
可愛い系から美人系まで多種多様なキャスト陣。
細部まで行き届いた気持ちの良いサービス。
歌舞伎町でワンランク上のナイトレジャーを堪能するのにピッタリなお店です。",
LUXY,ラグジー,渋谷,キャバクラ,19:00～LAST,年中無休,"60分 5,000円〜 
                                    
                                                                                    (税・サ別) (税・サ別)",080-2393-2465,東京都渋谷区道玄坂1-6-2  渋谷ファイブビル3F EF号室,https://www.caba2.net/s/5888,https://www.google.com/maps/search/?api=1&query=LUXY+%E6%B8%8B%E8%B0%B7+%E6%9D%B1%E4%BA%AC%E9%83%BD%E6%B8%8B%E8%B0%B7%E5%8C%BA%E9%81%93%E7%8E%84%E5%9D%821-6-2,"コンセプトはリーズナブルな高級店☆渋谷『LUXY』☆
渋谷の飲屋街プラザ通り沿いに位置するおしゃれなビルのオシャレなお店☆駅からのアクセスも抜群で仕事終わりや飲みの締めにも最適な営業時間なので最寄りお立ち寄りの際にはぜひご利用くださいませ♪渋谷随一！ハイレベルな女の子たちとの至高のお時間をお値段リーズナブルにご提供させていただきます★",
RED,レッド,蒲田,キャバクラ,20:00～LAST,日曜,"50分 4,000円〜 
                                    
                                                                                    (税・サ別) (税・サ別)",03-6428-6708,東京都大田区西蒲田7-5-12  新中央ビル3F,https://www.caba2.net/s/7749,https://www.google.com/maps/search/?api=1&query=RED+%E8%92%B2%E7%94%B0+%E6%9D%B1%E4%BA%AC%E9%83%BD%E5%A4%A7%E7%94%B0%E5%8C%BA%E8%A5%BF%E8%92%B2%E7%94%B07-5-12,"蒲田エリアの超人気店！【RED-レッド】
様々なキャストが在籍しており、きっと貴方にぴったりの子と出会えるはず！
蒲田の中でも人気のある店舗だから女の子もたくさん。
夜に遊ぶ場所をさがしているなら【RED-レッド】で決まり♪","木曜日: 18時00分～1時00分
金曜日: 18時00分～1時00分
土曜日: 18時00分～1時00分
日曜日: 18時00分～1時00分 時間変更の可能性
月曜日: 18時00分～1時00分 時間変更の可能性
火曜日: 18時00分～1時00分
水曜日: 18時00分～1時00分"
club R,クラブアール,歌舞伎町,キャバクラ,20:00～LAST,年中無休,"60分 8,000円〜 
                                    
                                                                                    (税・サ別) (税・サ別)",03-6205-6946,東京都新宿区歌舞伎町2-10-7  ダイヤモンドビル 4F,https://www.caba2.net/s/6373,https://www.google.com/maps/search/?api=1&query=club+R+%E6%AD%8C%E8%88%9E%E4%BC%8E%E7%94%BA+%E6%9D%B1%E4%BA%AC%E9%83%BD%E6%96%B0%E5%AE%BF%E5%8C%BA%E6%AD%8C%E8%88%9E%E4%BC%8E%E7%94%BA2-10-7,"歌舞伎町の超人気店【club R-アール】店内・キャスト共にハイレベルな店舗です。
歌舞伎町の中でも際立つ豪華な店内、ハイレベルのキャストとともに歌舞伎町の夜をお楽しみ頂けます。","木曜日: 20時00分～1時00分
金曜日: 20時00分～1時00分
土曜日: 20時00分～1時00分
日曜日: 20時00分～1時00分 時間変更の可能性
月曜日: 20時00分～1時00分 時間変更の可能性
火曜日: 20時00分～1時00分
水曜日: 20時00分～1時00分"
Club Lotta,ロッタ,神楽坂,キャバクラ,20:00～LAST,日曜,"60分 7,700円〜 
                                    
                                                                                    (税込) (税込)",03-3235-1611,東京都新宿区神楽坂3－6  ニュージョウトウヤビル３F,https://www.caba2.net/s/6428,https://www.google.com/maps/search/?api=1&query=Club+Lotta+%E7%A5%9E%E6%A5%BD%E5%9D%82+%E6%9D%B1%E4%BA%AC%E9%83%BD%E6%96%B0%E5%AE%BF%E5%8C%BA%E7%A5%9E%E6%A5%BD%E5%9D%823%EF%BC%8D6,"落ち着きあるエリア飯田橋の注目店！
飯田橋駅からほど近く複数の路線が通りアクセスも抜群のClub Lotta！
赤と黒でまとめられたシックな店内に、エリア屈指のハイレベルなキャスト達がお客様をお出迎え致します。
是非一度ご来店くださいませ。",
CLUB PING,ピン,上野,朝・昼キャバクラ,6:00～12:00,日曜,"60分 5,000円
                                    
                                                                                    (税・サ別) (税・サ別)",03-6240-1587,東京都文京区湯島3-39-10  第二大和ビル3F,https://www.caba2.net/s/6810,https://maps.app.goo.gl/JRN8JVYrzC4idHFS6,"上野朝キャバ『CLUB PING -クラブピン-』
朝キャバ☀️『CLUB PING -クラブピン-』上野に新たな伝説がはじまる！
かわいいキャストと最上級おもてなしで、朝イチから最高な時間を楽しめちゃう！！
見逃し厳禁！乞うご期待！！✨",
Club Rouge,ルージュ,銀座,キャバクラ,20:00～LAST,土曜・日曜・祝祭日,"60分 10,000円〜 
                                    
                                                                                    (税・サ別) (税・サ別)",03-6280-6373,東京都中央区銀座8-6-22  銀座ピアースビル 7F,https://www.caba2.net/s/10782,https://www.google.com/maps/search/?api=1&query=Club+Rouge+%E9%8A%80%E5%BA%A7+%E6%9D%B1%E4%BA%AC%E9%83%BD%E4%B8%AD%E5%A4%AE%E5%8C%BA%E9%8A%80%E5%BA%A78-6-22,"気品あふれる街銀座で「モノリスグループ」presents☆Club Rouge〜ルージュ〜
目の肥えたお客様が多数ご来店される銀座エリアにおいて、最高のサービスを提供し続けるお店Club Rouge（クラブルージュ）。伝統を受け継ぎながら、革新を繰り返す銀座の「粋と通」な至高のおもてなしをお楽しみ下さい。","木曜日: 20時00分～1時00分
金曜日: 20時00分～1時00分
土曜日: 定休日
日曜日: 定休日 祝休日の営業時間
月曜日: 20時00分～1時00分 祝休日の営業時間
火曜日: 20時00分～1時00分
水曜日: 20時00分～1時00分"
